OID_,AddNum_Pre,Add_Number,AddNum_Suf,AddNo_Full,St_PreMod,St_PreDir,St_PreTyp,St_PreSep,St_Name,St_PosTyp,St_PosDir,St_PosMod,StNam_Full,Building,Floor,Unit,Room,Seat,Addtl_Loc,SubAddress,LandmkName,County,Inc_Muni,Post_City,Census_Plc,Uninc_Comm,Nbrhd_Comm,NatAmArea,NatAmSub,Urbnztn_PR,PlaceOther,PlaceNmTyp,State,Zip_Code,Plus_4,UUID,AddAuth,AddrRefSys,Longitude,Latitude,NatGrid,Elevation,Placement,AddrPoint,Related_ID,RelateType,ParcelSrc,Parcel_ID,AddrClass,Lifecycle,Effective,Expire,DateUpdate,AnomStatus,LocatnDesc,Addr_Type,DeliverTyp,NAD_Source,DataSet_ID
55553379,,504,,504,,,,,TRENTON,Street,,,TRENTON Street,,,,,,,,,Roane,Harriman,HARRIMAN,,,,,,,,,TN,37748,,{E64F43BA-63DD-4012-9A03-508E034F8864},,,-84.549231324445799,35.934435301761809,16SGE2108579452,,Unknown,-84.5492313244458 35.93443530176181,,,,,Numbered Thoroughfare Address,,10/10/2017 0:00:00,,10/10/2017 0:00:00,,,Unknown,,TN STS GIS Services,ROANE_40337
40710483,,22,,22,,,,,Nagel,Drive,,,Nagel Drive,,,,,,,,,Erie,Cheektowaga,Buffalo,Cheektowaga CDP,Cheektowaga,,,,,,,NY,14225,,{C1E6E8A6-ED16-49C1-8C99-46E7040502A4},911 Addressing Authority,,-78.746159237999962,42.919926305000047,17TPH8394854387,,Structure - Rooftop,-78.74615923799996 42.91992630500005,,,,,Numbered Thoroughfare Address,Active,,,4/22/2025 0:00:00,,,Unknown,,New York State Geospatial Services,ERIE252257
24649817,,5836,,5836,,,,,Hubbard,Drive,,,Hubbard Drive,,,,,,,,,Montgomery,Unincorporated,Rockville,,,,,,,,,MD,20852,,{B5513532-45C9-4276-A468-CE167F39E458},,,-77.119597342954606,39.054235254560034,18SUJ1659124933,,Unknown,-77.1195973429546 39.054235254560034,,,,,Numbered Thoroughfare Address,,,,2/14/2024 0:00:00,,,Unknown,,Maryland Department of Information Technology,851514
51514548,,103,,103,,,,,PURITAN,Drive,,,PURITAN Drive,,,,,,,,,Newport,Unincorporated,Not stated,Melville CDP,,MIDDLETOWN,,,,,,RI,02842,,{23AB98D2-7ACE-40B2-8B2F-F1775F595BAC},,,-71.301622862999977,41.554623461000062,19TCG0805502886,,Unknown,-71.30162286299998 41.55462346100006,,,,,Numbered Thoroughfare Address,,,,4/24/2019 0:00:00,,,Multi-Family Home,,State of Rhode Island,{23AB98D2-7ACE-40B2-8B2F-F1775F595BAC}
31770565,,2891,,2891,,,,,LAKE SHORE,Road,South,,LAKE SHORE Road South,,,,,,,,,Lincoln,Unincorporated,DENVER,,,,,,,,,NC,28037,,{83E7D3AA-F6BE-43C9-A229-8700B8850282},,,-80.981462222585549,35.497915195294141,17SNV0168128262,,Unknown,-80.98146222258555 35.49791519529414,,,,,Numbered Thoroughfare Address,,,,11/5/2019 11:12:28,,,Unknown,,State of North Carolina,urn:emergency:uid:gis:ssap:28410:lincoln.nc.us
57658936,,7544,,7544,,South,,,2020,,East,,South 2020 East,,,,,,,,,Davis,SOUTH WEBER,OGDEN,,,,,,,,,UT,84405,,{169B96B1-82D5-44C3-BAEE-88A05A6866D3},DAVIS COUNTY,OGDEN,-111.926519107405639,41.129918718416064,12TVL2223153593,,Unknown,-111.92651910740564 41.129918718416064,,,,132110015,Numbered Thoroughfare Address,,,,2/19/2025 0:00:00,,,Residential,,Utah Geospatial Resource Center (UGRC),OGDEN | 7544 S 2020 E
24075088,,4626,,4626,,,,,Parkside,Drive,,,Parkside Drive,,,,,,,,,Baltimore city,Unincorporated,Baltimore,,,,,,,,,MD,21206,,{01C703F0-F6B8-4ADD-9581-B7F8B6CE4EB2},,,-76.558189770438332,39.323019844210251,18SUJ6568553780,,Unknown,-76.55818977043833 39.32301984421025,,,,,Numbered Thoroughfare Address,,,,2/14/2024 0:00:00,,,Unknown,,Maryland Department of Information Technology,163081
21177715,,205,,205,,,,,LOWELL,Street,,,LOWELL Street,,,1,,,,1,,Middlesex,WILMINGTON,Not stated,,WILMINGTON,,,,,,,MA,01887,,{9364616D-7E80-E800-35E0-03FAA1668392},WILMINGTON,UNINC_COMM,-71.151980631999947,42.537918704000049,19TCH2328311747,,Structure - Rooftop,-71.15198063199995 42.53791870400005,,,,,Numbered Thoroughfare Address,,,,9/25/2019 0:00:00,,,INDUSTRIAL,,MASSGIS Massachusetts,{9364616D-7E80-E800-35E0-03FAA1668392}
54247844,,4162,,4162,,,,,WINDTREE,Drive,,,WINDTREE Drive,,,,,,,,,Hamilton,Signal Mountain,SIGNAL MOUNTAIN,,,,,,,,,TN,37377,,{D6D74C54-8D73-4A9C-91C9-3F9CD305EDEF},,,-85.343035732553446,35.176604419983327,16SFD5088293885,,Unknown,-85.34303573255345 35.17660441998333,,,,,Numbered Thoroughfare Address,,12/30/1899 0:00:00,,12/30/1899 0:00:00,,,Unknown,,TN STS GIS Services,HAMILTON_301287
23630845,,32,,32,,,,,SHELLEY,Road,,,SHELLEY Road,,,,,,,,,Middlesex,ARLINGTON,Not stated,,ARLINGTON,,,,,,,MA,02476,,{8AD0EFB5-EE16-E165-7AE0-03FAA16683D2},ARLINGTON,UNINC_COMM,-71.195080638999968,42.417828680000071,19TCG1939898503,,Structure - Rooftop,-71.19508063899997 42.41782868000007,,,,,Numbered Thoroughfare Address,,,,1/27/2014 0:00:00,,,RESIDENTIAL,,MASSGIS Massachusetts,{8AD0EFB5-EE16-E165-7AE0-03FAA16683D2}
15211054,,2225,,2225,,East,County Road,,740,,North,,East County Road 740 North,,,,,,,,,Jennings,Unincorporated,NORTH VERNON,,,,,,,,,IN,47265,,{F0D1118F-2880-44FA-938C-8339C6785FA2},Jennings County,,-85.569820797999967,39.093890621000071,16SFJ2368028169,,Unknown,-85.56982079799997 39.09389062100007,,,,400531300004000010,Numbered Thoroughfare Address,,,,4/23/2025 0:00:00,,,AGRICULTURAL - CASH GRAIN/GENERAL FARM,,Indiana Geographic Information Council,urn:emergency:uid:gis:SSAP:0001734:jenningscounty-
10676595,,4250,,4250,,,,,SARATOGA,Avenue,,,SARATOGA Avenue,,,GR-113,,,,GR-113,,DuPage,DOWNERS GROVE,Downers Grove,,,,,,,,,IL,60515,,{25BA8EDF-DDF8-40F7-9F21-F8887DF9018F},Reserved for future use,,-88.016702852112203,41.809847942016567,16TDM1554829163,,Unknown,-88.0167028521122 41.80984794201657,,,,,Numbered Thoroughfare Address,,,,7/17/2023 13:15:36,,,Unknown,,State of Illinois,{25ba8edf-ddf8-40f7-9f21-f8887df9018f}
70123588,,1453,,1453,,,,,WATER LILY,Drive,,,WATER LILY Drive,,,,,,,,,Denton,Unincorporated,LITT,,,,,,,,,TX,75068,,{D19ABDF8-5273-43BB-8A5A-2C0D9E142C92},LITTLE ELM,,-96.914243532999990,33.181223082000031,14SPB9446073315,,Unknown,-96.91424353299999 33.18122308200003,,,,,Numbered Thoroughfare Address,,,,10/28/2022 0:00:00,,,Unknown,,State of Texas,{d19abdf8-5273-43bb-8a5a-2c0d9e142c92}
7942675,,3005,,3005,,,,,WILEY BLVD SW,,,,WILEY BLVD SW,,,100,,,,100,,Linn,CEDAR RAPIDS,Not stated,,,,,,,,,IA,52404,,{BA11BE64-3943-474B-96A1-F72114380D72},linn-county-sheriffs-office.state.ia.us,,-91.720520296999950,41.948902994000036,15TXG0604944894,,Unknown,-91.72052029699995 41.948902994000036,,,,,Numbered Thoroughfare Address,,,,5/20/2021 0:00:00,,,Unknown,,State of Iowa,SSAP_61392@cr.ia.us
76084018,,700,,700,,,,,SUNRISE,Court,,,SUNRISE Court,,,,,,,,,Tarrant,Unincorporated,ARLINGTON,,,,,,,,,TX,,,{47D9121A-CAED-4BB0-A9BD-645D4D7A7A6C},TC911,,-97.101521047999938,32.782822716000055,14SPB7779428806,,Unknown,-97.10152104799994 32.782822716000055,,,,,Numbered Thoroughfare Address,,,,1/29/2024 0:00:00,,,Unknown,,State of Texas,{47d9121a-caed-4bb0-a9bd-645d4d7a7a6c}
96835,,6427,,6427,,West,,,Sophie,Lane,,,West Sophie Lane,,,,,,,,,Maricopa,Phoenix,Not stated,,,,,,,,,AZ,85339,,{36FE8EB1-7E97-493E-BAC2-575108E98DDF},MARICOPA911.AZ.GOV,,-112.197945645999994,33.376626216000034,12SUB8856793681,,Unknown,-112.197945646 33.376626216000034,,,,,Numbered Thoroughfare Address,,,,2/12/2022 14:03:12,,,Unknown,,State of Arizona,AP621974@MARICOPA911.AZ.GOV
12493204,,10531,,10531,,,,,CAMELOT,Street,,,CAMELOT Street,,,,,,,,,Cook,WESTCHESTER,WESTCHESTER,,,,,,,,,IL,60154,,{2176F053-7CEC-4E5F-B90B-59BB47F29F9D},Reserved for future use,,-87.885730918121993,41.858400438701985,16TDM2648334433,,Unknown,-87.885730918122 41.858400438701985,,,,,Numbered Thoroughfare Address,,,,8/8/2024 0:00:00,,,Unknown,,State of Illinois,{2176f053-7cec-4e5f-b90b-59bb47f29f9d}
73755304,,207,,207,,,,,Woods Of Boerne,Boulevard,,,Woods Of Boerne Boulevard,,,,,,,,,Kendall,Unincorporated,Not stated,,,,,,,,,TX,,,{B250B69C-EAAA-42AA-A5A8-691F8E76165A},CSEC,,-98.705234464999990,29.791947005000054,14RNT2848895768,,Unknown,-98.70523446499999 29.791947005000054,,,,,Numbered Thoroughfare Address,,,,8/17/2022 0:00:00,,,Unknown,,State of Texas,{b250b69c-eaaa-42aa-a5a8-691f8e76165a}
18366256,,108,1/2,108 1/2,,North,,,3RD,Street,,,North 3RD Street,,,APT 2,,,,APT 2,,Nelson,Bardstown,Bardstown,,,,,,,,,KY,40004,,{23693D7C-A24E-43CA-88B5-4D1BC7FE6311},nelsoncountyky.org,,-85.466824343252298,37.809852079116091,16SFG3495985825,,Unknown,-85.4668243432523 37.80985207911609,,,,,Numbered Thoroughfare Address,,,,8/10/2018 8:37:08,,,790,,State of Kentucky,SSAP_21101@nelsoncountyky.org
75978393,,3033,,3033,,,,,RUSTLEWIND,Lane,,,RUSTLEWIND Lane,,,,,,,,,Tarrant,Unincorporated,GRAND PRAIRIE,,,,,,,,,TX,,,{F2E3DD52-62D2-439B-81E7-1E3BC91B459E},TC911,,-97.038358745999972,32.696767038000075,14SPB8388719372,,Unknown,-97.03835874599997 32.696767038000075,,,,,Numbered Thoroughfare Address,,,,1/29/2024 0:00:00,,,Unknown,,State of Texas,{f2e3dd52-62d2-439b-81e7-1e3bc91b459e}
79737941,,13533,,13533,,,Highway,,11,,North,,Highway 11 North,,,,,,,,,Tuscaloosa,Unincorporated,COTTONDALE,,Cottondale,,,,,,,AL,35453,,{C3BFBE4B-C334-4228-AD14-6F58AB45F852},,,-87.401638000377034,33.168641999239611,16SDB6255270054,,Unknown,-87.40163800037703 33.16864199923961,,,,,Numbered Thoroughfare Address,,,,2/6/2024 20:40:31,,,WATER METE,,Alabama 911 Board,{C3BFBE4B-C334-4228-AD14-6F58AB45F852}
62531623,,14855,,14855,,,,,MAIN,Street,,,MAIN Street,,,,,,,,,King,BELLEVUE,Not stated,,,,,,,,,WA,98007,,{0BFF28B9-7EC8-486E-A5A5-ECC9595D43AF},kingcounty.gov,,-122.141614557999958,47.609536112000058,10TET6451373260,0,Unknown,-122.14161455799996 47.60953611200006 0,,,,,Numbered Thoroughfare Address,,,,10/30/2023 23:54:33,,,Commercial,,State of Washington,urn:emergency:uid:gis:SSAP:230587:kingcounty.gov
30397831,,7854,,7854,,,,,ALEXANDER PROMENADE,Place,,,ALEXANDER PROMENADE Place,,,120,,,,120,,Wake,RALEIGH,RALEIGH,,,,,,,,,NC,27617,,{AF8D0D96-3FBC-41E8-BD6E-F92B2073960F},,,-78.780559654493985,35.912872646071648,17SQV0026876560,,Unknown,-78.78055965449398 35.91287264607165,,,,,Numbered Thoroughfare Address,,,,1/25/2024 0:00:00,,,Unknown,,State of North Carolina,urn:emergency:uid:gis:SSAP:{3904247}:wake.nc.us
37808397,,22,,22,,,Avenue,at,Port Imperial,,,,Avenue at Port Imperial,,,Apartment 429,,,,Apartment 429,Grandview One,Hudson,"Hudson, West New York",West New York,,,,,,,,,NJ,07093,,{0508969E-1FAA-42D8-9E4C-B7CAC0FBB94A},Civil Solutions,,-74.006623317735006,40.781812102307100,18TWL8382015011,,Structure - Rooftop,-74.006623317735 40.7818121023071,,,,f2919308-b96a-481b-a3e3-81fbb7187320,Numbered Thoroughfare Address,,,,2/23/2022 11:06:11,,,Residence,,State of New Jersey,9440f9a3-f534-4f42-b184-94e830207e64
23303460,,75,,75,,,,,COMMERCIAL,Street,,,COMMERCIAL Street,,,A204,,,,A204,MILLHOUSES OF ADAMS,Berkshire,ADAMS,Not stated,,ADAMS,,,,,,,MA,01220,,{8AD0EFB6-7518-5185-7AE0-03FAA16683D2},ADAMS,UNINC_COMM,-73.123661282999933,42.616268652000031,18TXN5388719909,,Structure - Rooftop,-73.12366128299993 42.61626865200003,,,,,Numbered Thoroughfare Address,,,,12/22/2017 0:00:00,,,EDUCATIONAL,,MASSGIS Massachusetts,{8AD0EFB6-7518-5185-7AE0-03FAA16683D2}
26013912,,8402,,8402,,,,,Oak Meade,Way,,,Oak Meade Way,,,,,,,,,Howard,Unincorporated,Jessup,,,,,,,,,MD,20794,,{05F86BE4-C9A0-4649-96D8-3B9DDA088CE2},,,-76.795821167343689,39.166340340983822,18SUJ4485636771,,Unknown,-76.79582116734369 39.16634034098382,,,,,Numbered Thoroughfare Address,,,,2/14/2024 0:00:00,,,Unknown,,Maryland Department of Information Technology,2332268
1499616,,8530,,8530,,North,,,22nd,Avenue,,,North 22nd Avenue,4,,Apt 2093,,,,4 Apt 2093,,Maricopa,Phoenix,Not stated,,,,,,,,,AZ,85021,,{74D78D80-5C98-4DF6-BA2F-2E97972A53B8},MARICOPA911.AZ.GOV,,-112.107217983999988,33.560755885000049,12SUC9722514004,,Unknown,-112.10721798399999 33.56075588500005,,,,,Numbered Thoroughfare Address,,,,2/12/2022 15:05:44,,,Unknown,,State of Arizona,AP1610709@MARICOPA911.AZ.GOV
77449512,,102,,102,,,,,SHADY GROVE,,,,SHADY GROVE,,,,,,,,,Williamson,Unincorporated,GEORGETOWN,,,,,,,,,TX,78633,,{727B88A9-F0DE-4566-8587-285FC49CD7CF},CAPCOG911,,-97.757767777999959,30.712097008000057,14RPU1895098354,,Unknown,-97.75776777799996 30.712097008000057,,,,,Numbered Thoroughfare Address,,,,1/24/2022 0:00:00,,,Unknown,,State of Texas,{727b88a9-f0de-4566-8587-285fc49cd7cf}
77477859,,602,,602,,,,,FLINT RIDGE,Trail,,,FLINT RIDGE Trail,,,,,,,,,Williamson,Unincorporated,GEORGETOWN,,,,,,,,,TX,78628,,{BFA1033A-5280-4CAF-83BB-88E8567F3EF7},CAPCOG911,,-97.793358827999953,30.656195675000049,14RPU1560892121,,Unknown,-97.79335882799995 30.65619567500005,,,,,Numbered Thoroughfare Address,,,,1/24/2022 0:00:00,,,Unknown,,State of Texas,{bfa1033a-5280-4caf-83bb-88e8567f3ef7}
10673941,,732,,732,,South,,,BERKLEY,Avenue,,,South BERKLEY Avenue,,,,,,,,,DuPage,ELMHURST,Elmhurst,,,,,,,,,IL,60126,,{BCB327F4-D3CA-419D-8F23-B4A2FE40E6B6},Reserved for future use,,-87.954723053688468,41.877319096217057,16TDM2078036595,,Unknown,-87.95472305368847 41.87731909621706,,,,,Numbered Thoroughfare Address,,,,7/17/2023 13:15:36,,,Unknown,,State of Illinois,{bcb327f4-d3ca-419d-8f23-b4a2fe40e6b6}
11609617,,4101,102,4101 102,,West,,,ILES,Avenue,,,West ILES Avenue,,,,,,,,,Sangamon,SPRINGFIELD,SPRINGFIELD,,,,,,,,,IL,62711,,{C0A709B5-5C59-4278-BED9-D526BD7CA788},Reserved for future use,,-89.731051737828921,39.771831525892757,16SBK6608706001,,Unknown,-89.73105173782892 39.77183152589276,,,,,Numbered Thoroughfare Address,,,,4/22/2024 16:09:05,,,Unknown,,State of Illinois,{c0a709b5-5c59-4278-bed9-d526bd7ca788}
86316302,,502,,502,,,,,Lillian,Road,,,Lillian Road,,,,,,,,,Westmoreland,Allegheny Township,Not stated,,Unincorporated,,,,,,,PA,,,{546F827B-602F-43AF-B8D1-3DDB885D9D9B},Westmoreland County,,-79.590735398291599,40.624082098489701,17TPE1919397982,,Unknown,-79.5907353982916 40.6240820984897,,,,,Numbered Thoroughfare Address,,,,4/14/2022 0:00:00,,,Unknown,,Westmoreland County Pennsylvania,1085
5468483,,6313,,6313,,,,,4TH,Street Road,,,4TH Street Road,,,,,,,,,Weld,GREELEY,Not stated,,,,,,,,,CO,80634,,{E8B66889-D230-4D1F-AB71-CA53C56D973A},,,-104.781711709334004,40.428867607493402,13TEE1851575381,,Unknown,-104.781711709334 40.4288676074934,,,,,Numbered Thoroughfare Address,,,,5/1/2022 0:00:00,,,Unknown,,Colorado OIT GIS,2113275
80648700,,7752,,7752,,,County Road,,121,,,,County Road 121,,,,,,,,,DeKalb,Unincorporated,Not stated,,DeKalb County,,,,,,,AL,35989,,{C832380A-6B3C-4C4A-89C1-BEBDF0A88EFA},,,-85.709074420025246,34.545077887759312,16SFD1845023352,,Unknown,-85.70907442002525 34.54507788775931,,,,,Numbered Thoroughfare Address,,,,9/20/2024 0:00:00,,,Unknown,,Alabama 911 Board,{C832380A-6B3C-4C4A-89C1-BEBDF0A88EFA}
46766411,,102,,102,,North,,,ALEX,Road,,,North ALEX Road,,,C,,,,C,,Montgomery,Unincorporated,WEST CARROLLTON,,,,,,,,Village,OH,45449,,{9F6B1AB8-E14E-4F3E-99F5-D5857F360613},0,,-84.242091432759707,39.677380724458430,16SGJ3653595586,,Unknown,-84.24209143275971 39.67738072445843,,,,,Numbered Thoroughfare Address,,,,3/30/2025 0:00:00,,,House,,State of Ohio,{9f6b1ab8-e14e-4f3e-99f5-d5857f360613}
69230169,,423,,423,,,,,SIXTH,Street,West,,SIXTH Street West,,,,,,,,,Dallas,Unincorporated,IRVING,,,,,,,,,TX,75060,,{495F4B81-BDC6-48B5-AC64-864927CC8861},New Edge Services,,-96.951428996999937,32.809650310000052,14SPB9179532043,,Unknown,-96.95142899699994 32.80965031000005,,,,,Numbered Thoroughfare Address,,,,3/20/2024 0:00:00,,,Unknown,,State of Texas,{495f4b81-bdc6-48b5-ac64-864927cc8861}
14314130,,2223,,2223,,,,,Norden,Court,,,Norden Court,,,,,,,,,Marion,Unincorporated,INDIANAPOLIS,,,,,,,,,IN,46219,,{439EA733-E291-472A-81C8-D1DEA0F6500C},Marion County,,-86.057887000999983,39.799094543000081,16SEK8065405883,,Unknown,-86.05788700099998 39.79909454300008,,,,490726100036000701,Numbered Thoroughfare Address,,,,12/30/1899 0:00:00,,,RESIDENTIAL 2 FAMILY ON A PLATTED LOT,,Indiana Geographic Information Council,urn:emergency:uid:gis:SSAP:2784300:indy.gov
66314798,,3102,,3102,,,,,Chesapeake,Drive,,,Chesapeake Drive,,,UNIT 304,,,,UNIT 304,,Prince William,Prince William County,Dumfries,,,,,,,,,VA,22026,,{134B1878-CA1B-4719-B649-4A216E80B425},Prince William County,,-77.305413793897699,38.584960998168000,18STH9919773241,,Structure - Rooftop,-77.3054137938977 38.584960998168,,,,,Numbered Thoroughfare Address,,8/2/2023 0:00:00,,8/2/2023 0:00:00,,,Unknown,,Virginia Geographic Information Network,3258116
47528288,,11790,,11790,,,,,SPRINGFIELD,Pike,,,SPRINGFIELD Pike,,,,,,,,,Hamilton,Unincorporated,CINCINNATI,,,,,,,,Village,OH,45246,,{2196736F-D48A-41AB-ABDA-757DFC2F2B07},,,-84.484899652206281,39.291193860340051,16SGJ1690552107,,Unknown,-84.48489965220628 39.29119386034005,,,,,Numbered Thoroughfare Address,,,,3/30/2025 0:00:00,,,Unknown,,State of Ohio,{2196736f-d48a-41ab-abda-757dfc2f2b07}
907743,,31031,,31031,,North,,,69th,Street,,,North 69th Street,,,,,,,,,Maricopa,Scottsdale,Not stated,,,,,,,,,AZ,85266,,{FEEBA10D-0F1C-4439-85DA-5BFD3A84F7CD},MARICOPA911.AZ.GOV,,-111.931854235999992,33.767948012000033,12SVC1371036817,,Unknown,-111.93185423599999 33.76794801200003,,,,,Numbered Thoroughfare Address,,,,2/12/2022 14:26:59,,,Unknown,,State of Arizona,AP1114615@MARICOPA911.AZ.GOV
32488258,,136,,136,,,,,13TH,Street,Northwest,,13TH Street Northwest,,,,,,,,,Catawba,HICKORY,HICKORY,,,,,,,,,NC,28601,,{0B17B98F-F6AE-4B1B-95EE-8A4CE863A7D3},,,-81.360302317013279,35.734429451700414,17SMV6741854553,,Unknown,-81.36030231701328 35.734429451700414,,,,,Numbered Thoroughfare Address,,,,1/29/2025 0:16:04,,,Unknown,,State of North Carolina,SSAP_106636@ctwbncen1.catawba.nc.us
19733356,,520,,520,,,,,Little Buck,Creek,,,Little Buck Creek,,,,,,,,,Estill,Unincorporated,BARNES MTN,,,,,,,,,KY,40336,,{904EAD5F-4788-426B-AEFB-B2CD0F0A8645},bgadd.org,,-83.881532792311930,37.639414476944999,17SKB4574769714,,Unknown,-83.88153279231193 37.639414476945,,,,,Numbered Thoroughfare Address,,7/1/2022 0:00:00,7/1/2050 0:00:00,12/26/2022 0:00:00,,,GPS,,State of Kentucky,107374
84092679,,3019,,3019,,South,,,Carpenter,Street,,,South Carpenter Street,,,,,,,,,Calumet,Unincorporated,APPLETON,,,,,,,,,WI,54915,2138,{F27EC204-3958-46F1-9864-C7311EEF1A02},Andy.Hess@calumetcounty.org,,-88.393008699999996,44.233420310000000,16TCP8875598742,,Unknown,-88.3930087 44.23342031,,,,,Numbered Thoroughfare Address,,,,7/6/2018 14:51:09,,,Unknown,,State of Wisconsin,81146
34537486,,44592,,44592,,,,,CARNS,Avenue,,,CARNS Avenue,,,,,,,,,Keya Paha,SPRINGVIEW,SPRINGVIEW,,,,,,,,,NE,,,{1E420EC5-F868-4EEB-8650-D3EE1CB63AC3},Keya Paha County,,-99.553426399000003,42.781123414000000,14TMN5473136657,0,Unknown,-99.553426399 42.781123414 0,,,,,,,,,2/19/2021 0:00:00,,HOUSE,Unknown,,State of Nebraska,SSAP_1256@keya paha.ne.us
30250067,,3836,,3836,,,,,OLYMPIA,Drive,,,OLYMPIA Drive,,,,,,,,,Wake,RALEIGH,RALEIGH,,,,,,,,,NC,27603,,{0D70629F-93FD-4916-8645-28B8A2A824E1},,,-78.661031814519546,35.737785233573142,17SQV1152057388,,Unknown,-78.66103181451955 35.73778523357314,,,,,Numbered Thoroughfare Address,,,,6/1/2019 10:59:00,,,Unknown,,State of North Carolina,urn:emergency:uid:gis:SSAP:{2741088}:wake.nc.us
54476083,,1611,,1611,,,,,PEARL,Avenue,,,PEARL Avenue,,,,,,,,,Jefferson,Jefferson City,JEFFERSON CITY,,,,,,,,,TN,37760,,{1FC7ABF4-F992-49C8-928A-C9A89418B948},,,-83.488696317874101,36.118891389095062,17SKA7601500003,,Unknown,-83.4886963178741 36.11889138909506,,,,,Numbered Thoroughfare Address,,12/30/1899 0:00:00,,12/30/1899 0:00:00,,,Unknown,,TN STS GIS Services,JEFFERSON_20833
22464386,,10,,10,,,,,GERSHOM,Drive,,,GERSHOM Drive,,,,,,,,,Worcester,GRAFTON,Not stated,,GRAFTON,,,,,,,MA,01536,,{8AD0EFA0-537B-37B5-7AE0-03FAA16683D2},GRAFTON,UNINC_COMM,-71.650790777999987,42.246368633000031,19TBG8130980533,,Parcel - Centroid,-71.65079077799999 42.24636863300003,,,,,Numbered Thoroughfare Address,,,,2/3/2014 0:00:00,,,EDUCATIONAL,,MASSGIS Massachusetts,{8AD0EFA0-537B-37B5-7AE0-03FAA16683D2}
38471941,,1528,,1528,,North,,,TORNILLO,Street,,,North TORNILLO Street,,,,,,,,,Doña Ana,Unincorporated,,,LAS CRUCES,,,,,,,NM,88001,,{79A9180B-DDA0-424D-A974-FB1F3B35F404},Dona Ana County,,-106.777514601363421,32.324547216163936,13SCR3268677798,,Unknown,-106.77751460136342 32.324547216163936,,,,,Numbered Thoroughfare Address,,8/4/2023 0:00:00,,8/17/2023 0:00:00,N,,Unknown,,University of New Mexico EDAC,{79a9180b-dda0-424d-a974-fb1f3b35f404}
65049452,,24243,,24243,,,,,Kylemore,Drive,,,Kylemore Drive,,,,,,,,,Loudoun,Loudoun County,Aldie,,,,,,,,,VA,20105,,{37D5F420-DBB3-4453-AA70-7129874A8010},Loudoun County,,-77.575110620446694,38.946330415501798,18STJ7683213974,,Structure - Rooftop,-77.5751106204467 38.9463304155018,,,,,Numbered Thoroughfare Address,,8/3/2023 0:00:00,,8/3/2023 0:00:00,,,Unknown,,Virginia Geographic Information Network,1991651
14151187,,5365,,5365,,West,County Road,,760,,North,,West County Road 760 North,,,,,,"1 sty, yel, wht trm","1 sty, yel, wht trm",,Steuben,Unincorporated,ORLAND,,,,,,,,,IN,46776,,{2B98BB35-19F5-4C2E-847C-E7E9A43D5B1C},Steuben County,,-85.097599004999950,41.755074183000033,16TFM5815824331,,Unknown,-85.09759900499995 41.75507418300003,,,,760413240105000007,Numbered Thoroughfare Address,,,,12/30/1899 0:00:00,,,RESIDENTIAL 1 FAMILY ON A PLATTED LOT,,Indiana Geographic Information Council,urn:emergency:uid:gis:SSAP:245:co.steuben.in.us
59179614,,134,,134,,,,,Louis Bowen,Road,,,Louis Bowen Road,,,,,,,,,Lonoke,Unincorporated,Jacksonville,,,Lonoke County,,,,,,AR,72076,8140,{D4352D66-4071-4D60-BE64-4B0254E28A1F},085,,-92.025036400287689,34.837093471465266,15SWU8914455410,,Unknown,-92.02503640028769 34.837093471465266,,,,,Numbered Thoroughfare Address,,,,2/16/2024 0:00:00,,,Residential,,Arkansas Geographic Information Office,
58701017,,203,,203,,West,,,Hinkley,Street,,,West Hinkley Street,,,,,,,,,Craighead,Brookland,Brookland,,,BROOKLAND,,,,,,AR,72417,8015,{BB44B03B-C953-4DBE-BA61-999F02DF1B1D},031,,-90.583765321597141,35.900293408259785,15SYV1806375586,,Unknown,-90.58376532159714 35.900293408259785,,,,,Numbered Thoroughfare Address,,,,2/13/2024 0:00:00,,,Residential,,Arkansas Geographic Information Office,
36820774,,324,,324,,,,,Fairmount,Road,,,Fairmount Road,,,,,,,,,Morris,"Morris, Washington Township",Long Valley,,,,,,,,,NJ,07853,3015,{D4F6A9FC-54EC-4044-A6B9-8D50EB22F031},Morris County,,-74.769538005694699,40.746543111376297,18TWL1945610647,,Unknown,-74.7695380056947 40.7465431113763,,,,5bbf785f-aa27-4c16-ba0f-632dc1461266,Numbered Thoroughfare Address,,,,1/11/2022 1:37:13,,,Residence,,State of New Jersey,83830069-8861-468a-b966-501f51578fda
10836246,,1445,,1445,,,,,GREENS,Court,,,GREENS Court,,,,,,,,,DuPage,GLENDALE HEIGHTS,Glendale Heights,,,,,,,,,IL,60139,,{0548B488-C7F8-42F0-908D-E32BF035403B},Reserved for future use,,-88.097415458107534,41.912128461152200,16TDM0898940602,,Unknown,-88.09741545810753 41.9121284611522,,,,,Numbered Thoroughfare Address,,,,7/17/2023 13:15:36,,,Unknown,,State of Illinois,{0548b488-c7f8-42f0-908d-e32bf035403b}
81005850,,14,,14,,,,,HASTINGS,Court,,,HASTINGS Court,,,,,,,,,St. Charles,Unincorporated,ST CHARLES,,,,,,,,,MO,63301,,{03439EBF-878E-4971-806C-1123013BFC15},,,-90.516439563452238,38.813053700790007,15SYC1563598961,,Property Access,-90.51643956345224 38.81305370079001,,,,,Numbered Thoroughfare Address,,,,3/13/2024 0:00:00,,,Unknown,,St Charles County Missouri,{03439EBF-878E-4971-806C-1123013BFC15}
61800577,,4601,17,4601 17,,West,,,POWERHOUSE,Road,,,West POWERHOUSE Road,,,,,,,,,Yakima,YAKIMA,Not stated,,,,,,,,,WA,98908,,{6C439A7B-EBD8-41D8-B873-F76F04064A15},yakimawa.gov,,-120.571858162999945,46.623184234000064,10TFS8589166155,,Unknown,-120.57185816299994 46.623184234000064,,,,,Numbered Thoroughfare Address,,,,6/16/2021 0:29:34,,,1,,State of Washington,SSAP_22180@yakima911.org
37541205,,520,,520,,East,,,Plum,Street,,,East Plum Street,,,,,,,,,Cumberland,"Cumberland, Vineland",Vineland,,,,,,,,,NJ,08360,3707,{D98A868E-6FC2-4AD4-8CC1-84A85BEA32FB},NJ Office of GIS,,-75.024541581269105,39.488412665989301,18SVJ9788970978,,Structure - Rooftop,-75.0245415812691 39.4884126659893,,,,cfd949c3-407f-4410-a2fe-5780b8eadc97,Numbered Thoroughfare Address,,,,1/10/2022 23:36:51,,,Residence,,State of New Jersey,65c5ed03-b62a-4e83-aafa-c86a18d61bb7
39388064,,9927,,9927,,,,,CERRO LARGO,Place,Northwest,,CERRO LARGO Place Northwest,,,,,,,,,Bernalillo,Unincorporated,ALBUQUERQUE,,ALBUQUERQUE,,,,,,,NM,87114,,{CD74D49E-3A71-4233-A18E-ACC28ABBA2DB},Bernalillo County,,-106.747162737902912,35.193122403657227,13SCU4093595857,,Unknown,-106.74716273790291 35.19312240365723,,,,,Numbered Thoroughfare Address,,8/19/2024 0:00:00,,8/20/2024 0:00:00,N,,Unknown,,University of New Mexico EDAC,{cd74d49e-3a71-4233-a18e-acc28abba2db}
84846343,,11421,,11421,,North,,,Oriole,Lane,,,North Oriole Lane,,,,,,,,,Ozaukee,Unincorporated,MEQUON,,,,,,,,,WI,53092,3205,{D613E9B3-9652-45EE-AF24-386679F4F059},cpearson@co.ozaukee.wi.us,,-87.933978400000001,43.225899159999997,16TDN2415286324,,Unknown,-87.9339784 43.22589916,,,,,Numbered Thoroughfare Address,,,,7/11/2018 16:12:34,,,Unknown,,State of Wisconsin,834810
53057583,,3120,,3120,,,,,KNOB CREEK,Road,,,KNOB CREEK Road,,,,,,,,,Maury,Unincorporated,COLUMBIA,,,,,,,,,TN,38401,,{A13D1ABE-F576-4492-B31E-97B3F1DFC72B},MAURY 911,,-87.045571254854366,35.770203170080848,16SDE9588058462,,Unknown,-87.04557125485437 35.77020317008085,,,,,Numbered Thoroughfare Address,,7/13/2015 12:03:51,,8/24/2018 11:49:10,,,Unknown,,TN STS GIS Services,MAURY_42770
80104720,,1621,,1621,,,,,2nd,Street,Northwest,,2nd Street Northwest,,,,,,,,,Jefferson,Unincorporated,Not stated,,Center Point Fire Department,,,,,,,AL,,,{D31875DF-D511-4722-9FF5-FA662CB2645D},,,-86.687541300567091,33.628564375129599,16SEC2897921016,,Unknown,-86.68754130056709 33.6285643751296,,,,,Numbered Thoroughfare Address,,,,9/28/2022 14:28:26,,,Unknown,,Alabama 911 Board,{D31875DF-D511-4722-9FF5-FA662CB2645D}
8858005,,715,,715,,North,,,WEST,Street,,,North WEST Street,,,,,,,,,Richland,OLNEY,Olney,,,,,,,,,IL,62450,,{787327BB-61F3-4105-82D0-100E830E34E3},RESERVED FOR FUTURE USE,,-88.095283486443748,38.742457898866590,16SDH0481388766,0,Unknown,-88.09528348644375 38.74245789886659 0,,,,,Numbered Thoroughfare Address,,,,7/30/2021 0:00:00,,,Unknown,,State of Illinois,{787327bb-61f3-4105-82d0-100e830e34e3}
39775029,,1132,,1132,,,,,Broadway,,,,Broadway,,,,,,,,,Chemung,Southport,Elmira,Southport CDP,Southport,,,,,,,NY,14904,,{0274AFC9-6129-4668-9356-32591542FCCF},911 Addressing Authority,,-76.818750062999982,42.058787865000056,18TUM4951157903,,Structure - Rooftop,-76.81875006299998 42.058787865000056,,,,,Numbered Thoroughfare Address,Active,,,4/5/2023 13:08:39,,,Unknown,,New York State Geospatial Services,CHEM005526
81199207,,32,,32,,,,,BLUEBIRD,Way,,,BLUEBIRD Way,,,UNIT 2,,,,UNIT 2,,Stone,Unincorporated,INDIAN POINT,,,,,,,,,MO,65616,,{DFE52E2F-FAC7-434B-949F-12CC54122262},,,-93.349847421721734,36.661500704259161,15SVA6873457379,,Structure - Interior,-93.34984742172173 36.66150070425916,,,,,Numbered Thoroughfare Address,,,,3/13/2024 0:00:00,,,Unknown,,Stone County Missouri,{DFE52E2F-FAC7-434B-949F-12CC54122262}
3643992,,7321,,7321,,South,,,PLATTE RIVER,Parkway,,,South PLATTE RIVER Parkway,BLDG 3,,APT 302,,,,BLDG 3 APT 302,,Arapahoe,LITTLETON,Not stated,,,,,,,,,CO,80120,,{042E36FB-634E-4A49-A206-40593A37A738},,,-105.028105178746998,39.585726466654400,13SDD9758681778,,,-105.028105178747 39.5857264666544,,,,,Numbered Thoroughfare Address,,,,5/1/2022 0:00:00,,,Unknown,,Colorado OIT GIS,288784
23679342,,24,,24,,,,,QUAKER,Lane,,,QUAKER Lane,,,,,,,,COUNTRY RIDGES ESTATES,Barnstable,BOURNE,Not stated,,BOURNE,,,,,,,MA,02532,,{8AD0EFC5-4F4D-F4D5-7AE0-03FAA16683D2},BOURNE,UNINC_COMM,-70.592640401999972,41.722118566000063,19TCG6752720149,,Structure - Rooftop,-70.59264040199997 41.72211856600006,,,,,Numbered Thoroughfare Address,,,,7/29/2024 0:00:00,,,EDUCATIONAL,,MASSGIS Massachusetts,{8AD0EFC5-4F4D-F4D5-7AE0-03FAA16683D2}
12543464,,1324,,1324,,,County Road,,740,,East,,County Road 740 East,,,,,,,,,Wayne,UNINCORPORATED,JOHNSONVILLE,,,,,,,,,IL,62850,,{02E25FD9-E538-45D5-B6FB-7E8168352EB9},Reserved for future use,,-88.563425363743363,38.449992166746625,16SCH6357456902,,Unknown,-88.56342536374336 38.449992166746625,,,,,Numbered Thoroughfare Address,,,,9/16/2020 0:00:00,,,Unknown,,State of Illinois,{02e25fd9-e538-45d5-b6fb-7e8168352eb9}
52611930,,6558,,6558,,,,,JACK,Cove,,,JACK Cove,,,,,,,,,Shelby,Millington,MILLINGTON,,,,,,,,,TN,38053,8194,{AD5C96B9-D008-416B-A2BF-061D5AC04110},MLGW,,-89.915966918928930,35.304933197107381,16SBE3486510760,,Unknown,-89.91596691892893 35.30493319710738,,,,,Numbered Thoroughfare Address,,6/17/2013 0:00:00,,12/14/2015 15:49:49,,,Unknown,,TN STS GIS Services,SHELBY_794117
72277684,,11007,,11007,,,,,NORTHAM,Drive,,,NORTHAM Drive,,,,,,,,,Harris,Unincorporated,TOMBALL,,,,,,,,,TX,77375,,{04BFF2AE-3714-4E0B-B250-BCC79FD00CCC},COH,,-95.585948254999948,30.037251947000073,15RTP5064125731,,Unknown,-95.58594825499995 30.037251947000073,,,,,Numbered Thoroughfare Address,,,,7/22/2024 0:00:00,,,Unknown,,State of Texas,{04bff2ae-3714-4e0b-b250-bcc79fd00ccc}
31655039,,148,,148,,,,,LONG POND,Drive,,,LONG POND Drive,,,,,,,,,Iredell,Unincorporated,STATESVILLE,,,,,,,,,NC,28625,,{E699EF47-1A00-43A9-81A3-931AED54A701},,,-80.748230115738110,35.825224184761531,17SNV2274164592,,Unknown,-80.74823011573811 35.82522418476153,,,,,Numbered Thoroughfare Address,,1/17/2025 10:22:16,,1/17/2025 10:22:16,,,Unknown,,State of North Carolina,SSAP_75914@irdlncec1.iredell.nc.us
46295023,,389,,389,,,,,VALINDA,Place,,,VALINDA Place,,,1,,,,1,,Summit,Unincorporated,Akron,,Akron,,,,,,Village,OH,44304,,{B346B8BA-7EFD-41B4-976E-E3B4DBDAA3E1},0,,-81.505586446724607,41.079754325130182,17TMF5753047733,,Unknown,-81.5055864467246 41.07975432513018,,,,,Numbered Thoroughfare Address,,,,3/30/2025 0:00:00,,,Duplex,,State of Ohio,{b346b8ba-7efd-41b4-976e-e3b4dbdaa3e1}
53313610,,2146,,2146,,,,,FOSTER,Circle,,,FOSTER Circle,,,,,,,,,Putnam,Unincorporated,COOKEVILLE,,,,,,,,,TN,38501,,{9A7DB845-507F-4C34-BF19-90E0A811B844},PUTNAM COUNTY 911,,-85.544404084494872,36.205793334832784,16SFF3085107756,,Unknown,-85.54440408449487 36.205793334832784,,,,,Numbered Thoroughfare Address,,2/8/2014 0:00:00,,11/10/2016 11:29:50,,,Unknown,,TN STS GIS Services,PUTNAM_27136
43440329,,1088,,1088,,,,,Manor,Lane,,,Manor Lane,,,,,,,,,Suffolk,Islip,Bay Shore,West Bay Shore CDP,West Bay Shore,,,,,,,NY,11706,,{10B82A9B-A732-478E-A502-3F8BA20F565E},911 Addressing Authority,,-73.280093516999955,40.724464879000038,18TXL4525009593,,Structure - Rooftop,-73.28009351699995 40.72446487900004,,,,,Numbered Thoroughfare Address,Active,,,4/22/2025 0:00:00,,,Unknown,,New York State Geospatial Services,SUFF365937
13508405,,2640,,2640,,,,,27TH,Street,,,27TH Street,,,,,,,,,Rock Island,ROCK ISLAND,ROCK ISLAND,,,,,,,,,IL,61201,,{86C2EE61-8947-41E5-B7ED-8948755FD240},rico911.org,,-90.563011499233028,41.483109866084419,15TYF0345895256,,Unknown,-90.56301149923303 41.48310986608442,,,,,Numbered Thoroughfare Address,,,,4/29/2020 17:04:57,,,Unknown,,State of Illinois,{86c2ee61-8947-41e5-b7ed-8948755fd240}
3882770,,611,,611,,,,,WASHINGTON,Avenue,,,WASHINGTON Avenue,,,,,,,,,Boulder,Unincorporated,Not stated,Eldora CDP,,,,,,,,CO,80466,,{3AE819AA-8091-4DAF-AF99-E786525D0B3C},,,-105.570037966453000,39.950762582028901,13SDE5130622447,,Unknown,-105.570037966453 39.9507625820289,,,,,Numbered Thoroughfare Address,,,,5/1/2022 0:00:00,,,Unknown,,Colorado OIT GIS,527562
23871853,,107,,107,,,,,Water,Street,,,Water Street,,,,,,,,,Frederick,Unincorporated,Thurmont,,,,,,,,,MD,21788,,{9899277B-C5F7-4B60-BA9C-D7CAE77858D1},,,-77.411561992347018,39.621262950675941,18STJ9300588501,,Unknown,-77.41156199234702 39.62126295067594,,,,,Numbered Thoroughfare Address,,,,2/14/2024 0:00:00,,,Unknown,,Maryland Department of Information Technology,512351
60520030,,2037,,2037,,West,,,BAKERVIEW,Road,,,West BAKERVIEW Road,,,,,,,,,Whatcom,Unincorporated,Bellingham,,,,,,,,,WA,98226,,{AECFF082-06FE-4493-84E8-FC678FD19754},cob.org,,-122.534202680999954,48.790471763000028,10UEV3421204268,,Unknown,-122.53420268099995 48.79047176300003,,,,,Numbered Thoroughfare Address,,,,11/4/2016 22:57:23,,,Unknown,,State of Washington,urn:emergency:uid:gis:SSAP:{28A22CA2-6FD2-4017-A9E
29481330,,613,,613,,,,,SILVERSMITH,Lane,,,SILVERSMITH Lane,,,,,,,,,Mecklenburg,CHARLOTTE,CHARLOTTE,,,,,,,,,NC,28270,,{EFB0424B-A5D4-4428-9275-3E1A453DF2D0},,,-80.748483516599293,35.116925401975607,17SNU2291886038,,Unknown,-80.7484835165993 35.11692540197561,,,,,Numbered Thoroughfare Address,,6/1/2009 0:00:00,12/31/9999 0:00:00,5/5/2020 17:56:00,,,Unknown,,State of North Carolina,SSAP_162683@mecknc.gov
86270620,,308,,308,,,,,CRICKETWOOD,Court,,,CRICKETWOOD Court,,,,,,,,,Washington,NORTH STRABANE TOWNSHIP,CANONSBURG,,,,,,,,,PA,15317,,{8A81BCB9-916E-43C2-A523-3F2725F2BB4B},co.washington.pa.us,,-80.144687097287346,40.260518793537265,17TNE7273157023,987,Unknown,-80.14468709728735 40.260518793537265 987.38000488,,,,,Numbered Thoroughfare Address,,,,2/14/2024 0:00:00,,,Unknown,,Washington County Pennsylvania,SSAP_co.washington.pa.us_056175
41813104,,1400,,1400,,,,,Crescent Vischer Ferry,Road,,,Crescent Vischer Ferry Road,Apartment 124,,Apartment 124,,,,Apartment 124 Apartment 124,,Saratoga,Halfmoon,Clifton Park,,,,,,,,,NY,12065,,{3B8ADCC1-5E36-404B-B045-406EC19F4E4F},911 Addressing Authority,,-73.742109425999956,42.820638112000040,18TXN0282641664,,Structure - Rooftop,-73.74210942599996 42.82063811200004,,,,,Numbered Thoroughfare Address,Active,,,10/25/2019 9:41:03,,,Unknown,,New York State Geospatial Services,SARA146961
18645353,,4,,4,,,,,QUAIL RIDGE,Court,,,QUAIL RIDGE Court,,2,D,,,,2 D,QUAIL RIDGE,Daviess,Owensboro,Not stated,,,,,,,,,KY,42303,,{1914C19F-5A3B-44C9-BEA2-CEC99981C43D},police.owensboro.org,,-87.098776139592232,37.734720428411727,16SDG9129676386,,Unknown,-87.09877613959223 37.73472042841173,,,,,Numbered Thoroughfare Address,,,,3/14/2013 0:00:00,,,APARTMENT,,State of Kentucky,ssap508131_police.owensboro.org
58924590,,213,,213,,,,,Shady Hills,Street,,,Shady Hills Street,,,,,,,,,Garland,Hot Springs,Hot Springs National Park,,,HOT SPRINGS,,,,,,AR,71901,8246,{93159A9C-9EE4-4CEA-A153-DCFD720F6034},051,,-93.015358415590825,34.462589192662158,15SVU9858913448,,Unknown,-93.01535841559082 34.46258919266216,,,,,Numbered Thoroughfare Address,,,,2/12/2024 0:00:00,,,Residential,,Arkansas Geographic Information Office,
30542766,,3710,,3710,,,,,RHYNES GATE,Way,,,RHYNES GATE Way,,,302,,,,302,,Wake,RALEIGH,RALEIGH,,,,,,,,,NC,27606,,{8333AE21-467A-4734-BA7A-679BAAD6A344},,,-78.687422902918001,35.783378415043749,17SQV0901362389,,Unknown,-78.687422902918 35.78337841504375,,,,,Numbered Thoroughfare Address,,,,6/9/2021 0:00:00,,,Unknown,,State of North Carolina,urn:emergency:uid:gis:SSAP:{5208953}:wake.nc.us
77651840,,6906,,6906,,,,,RIVERTON,Drive,,,RIVERTON Drive,,,,,,,,,Williamson,Unincorporated,Austin,,,,,,,,,TX,78729,,{3C099DE1-1977-49C6-9997-48D84CADBA89},,,-97.751141755999981,30.445740946000058,14RPU1991268841,,Unknown,-97.75114175599998 30.445740946000058,,,,,Numbered Thoroughfare Address,,,,3/27/2021 0:00:00,,,Unknown,,State of Texas,{3c099de1-1977-49c6-9997-48d84cadba89}
10149604,,713,,713,,,,,ADAMS,Street,,,ADAMS Street,,,,,,,,,Will,BOLINGBROOK,BOLINGBROOK,,INCORPORATED,,,,,,,IL,60440,,{B52E77FA-D295-4186-9666-3F383286B7E7},Reserved for Future Use,,-88.097718777856485,41.693457115172357,16TDM0865316324,0,Unknown,-88.09771877785649 41.69345711517236 0,,,,,Numbered Thoroughfare Address,,11/16/2015 0:00:00,,9/21/2023 0:00:00,,,Unknown,,State of Illinois,{b52e77fa-d295-4186-9666-3f383286b7e7}
72224988,,6423,,6423,,,,,BUFORD,Street,,,BUFORD Street,,,,,,,,,Harris,Unincorporated,HOUSTON,,,,,,,,,TX,77023,,{1A5AA191-264C-4D52-9ACD-BB8A341D60B2},COH,,-95.308778012999937,29.707536714000071,15RTN7664288609,,Unknown,-95.30877801299994 29.70753671400007,,,,,Numbered Thoroughfare Address,,,,7/22/2024 0:00:00,,,Unknown,,State of Texas,{1a5aa191-264c-4d52-9acd-bb8a341d60b2}
67037096,,257,,257,,,,,LOWER RED ROCK,Road,,,LOWER RED ROCK Road,,,B,,,,B,,Bastrop,Unincorporated,BASTROP,,,,,,,,,TX,78602,,{283EA138-936A-446A-954F-133AB23F9F66},,,-97.363625502999980,30.068622164000033,14RPU5772627517,,Unknown,-97.36362550299998 30.068622164000033,,,,,Numbered Thoroughfare Address,,,,10/14/2022 0:00:00,,,Unknown,,State of Texas,{283ea138-936a-446a-954f-133ab23f9f66}
62690581,,6515,,6515,,Southeast,,,30TH,Street,,,Southeast 30TH Street,,,,,,,,,King,MERCER ISLAND,Not stated,,,,,,,,,WA,98040,,{1CA5E34F-3BC6-4F30-946D-C24B3BC12B6A},kingcounty.gov,,-122.248272781999958,47.584168881000039,10TET5652470357,0,Unknown,-122.24827278199996 47.58416888100004 0,,,,,Numbered Thoroughfare Address,,,,10/31/2023 9:25:45,,,Single Family,,State of Washington,urn:emergency:uid:gis:SSAP:419407:kingcounty.gov
10080378,,16056,,16056,,West,,,BENCK,Street,,,West BENCK Street,,,,,,,,,Will,MANHATTAN,MANHATTAN,,INCORPORATED,,,,,,,IL,60442,,{C2F72DF4-EF95-4F01-B92E-DD446611D484},Reserved for Future Use,,-88.003693638813800,41.443584947851477,16TDL1615588487,0,Unknown,-88.0036936388138 41.44358494785148 0,,,,,Numbered Thoroughfare Address,,11/17/2015 0:00:00,,9/22/2023 0:00:00,,,Unknown,,State of Illinois,{c2f72df4-ef95-4f01-b92e-dd446611d484}
67846207,,12818,,12818,,,,,FAIRVIEW FARMS,,,,FAIRVIEW FARMS,,,,,,,,,Bexar,Unincorporated,SAN ANTONIO,,,,,,,,,TX,,,{14BF201A-9179-4C70-B052-6A415E85FA76},Bexar Metro 911,,-98.618194903999949,29.564489185000070,14RNT3698470589,,Unknown,-98.61819490399995 29.56448918500007,,,,,Numbered Thoroughfare Address,,,,1/11/2024 0:00:00,,,Unknown,,State of Texas,{14bf201a-9179-4c70-b052-6a415e85fa76}
74788139,,30201,,30201,,,,,SECRET RIVER,Court,,,SECRET RIVER Court,,,,,,,,,Montgomery,Unincorporated,MAGNOLIA,,,,,,,,,TX,77354,,{20669F25-EE19-402D-B261-9A169ED097E3},MONTGOMERY 911,,-95.632566590999943,30.186737687000061,15RTP4652742406,,Unknown,-95.63256659099994 30.18673768700006,,,,,Numbered Thoroughfare Address,,,,5/22/2023 0:00:00,,,Unknown,,State of Texas,{20669f25-ee19-402d-b261-9a169ed097e3}
74208782,,103,,103,,,,,PINNICLE CT,,,,PINNICLE CT,,,,,,,,,McLennan,Unincorporated,Not stated,,,,,,,,,TX,76712,,{882B9FC8-0AF4-4B53-BB5E-D0DF7CFA8A6E},McLennan Co Emergency Assitance Dist,,-97.259125054999970,31.486223922000079,14RPV6535684802,,Unknown,-97.25912505499997 31.48622392200008,,,,,Numbered Thoroughfare Address,,,,1/31/2024 0:00:00,,,Unknown,,State of Texas,{882b9fc8-0af4-4b53-bb5e-d0df7cfa8a6e}
87780907,,26340,,26340,,,Highway,,82,,,,Highway 82,,,,,,,,,Cherokee,UNINCORPORATED,PARK HILL,,CHEROKEE COUNTY,,,,,,,OK,74451,,{E7621AB0-B167-4822-99A1-EA97C7F06489},psap.5604.ok.gov,psap.5604.ok.gov,-94.957715159999964,35.794212030000040,15SUV2308762892,,Unknown,-94.95771515999996 35.79421203000004,,,,,Numbered Thoroughfare Address,,,,12/1/2021 0:00:00,,,Unknown,,State of Oklahoma,{e7621ab0-b167-4822-99a1-ea97c7f06489}
5277841,,3930,,3930,,,,,GOODNIGHT,Avenue,,,GOODNIGHT Avenue,,,,,,,,,Pueblo,PUEBLO,Not stated,,,,,,,,,CO,81005,,{082C3B8C-AEF6-40E9-A5B3-B17129DFF2E8},,,-104.666282929562001,38.263547193265097,13SEC2919435109,,Unknown,-104.666282929562 38.2635471932651,,,,,Numbered Thoroughfare Address,,,,7/1/2021 0:00:00,,,Unknown,,Colorado OIT GIS,1922633
6279601,,138,,138,,,,,Joy,Road,,,Joy Road,,,,,,,,,New Haven,Waterbury,Not stated,,WATERBURY,,,,,,,CT,06708,,{6DDE1C15-60D8-49E7-8956-06BFC8755D75},State of Connecticut Department of Emergency Services and Public Protection,,-73.069532204118104,41.555907747665501,18TXM6098702270,,Structure - Rooftop,-73.0695322041181 41.5559077476655,,,,,Numbered Thoroughfare Address,,,,3/4/2022 0:00:00,,,Unknown,,State of Connecticut,763036
8359546,,904,,904,,,,,5TH,Avenue,Northeast,,5TH Avenue Northeast,,,,,,,,,Wright,Belmond,BELMOND,,,,,,,,,IA,,,{27691E0D-E715-4DF6-BA9A-7820B67977B2},wright-county-comm.state.ia.us,,-93.610023420999937,42.853583734000040,15TVH5016044736,0,Unknown,-93.61002342099994 42.85358373400004 0,,,,,Numbered Thoroughfare Address,,2/1/2016 0:00:00,,5/15/2023 15:21:57,,,Unknown,,State of Iowa,SSAP_000156@wright.ia.us
31169433,,89,,89,,,,,DAYBREAK,Way,,,DAYBREAK Way,,,,,,,,,Harnett,Unincorporated,FUQUAY VARINA,,,,,,,,,NC,27526,,{2AEA5303-31C0-4D06-B847-E0A6BB9CC741},,,-78.835207756294025,35.544191022422027,17SPV9623935550,,Unknown,-78.83520775629403 35.54419102242203,,,,,Numbered Thoroughfare Address,,,,9/6/2024 16:01:43,,,Unknown,,State of North Carolina,SSAP_1085375@hrntncso1.harnett.nc.us
30202550,,214,,214,,,,,CARLTON HOWELL,Drive,,,CARLTON HOWELL Drive,,,,,,,,,Alexander,Unincorporated,TAYLORSVILLE,,TAYLORSVILLE,,,,,,,NC,28681,,{4DC2F6DC-8CEF-4501-91DB-28E4E1C3AE2B},,,-81.201911274553794,35.941166187535785,17SMV8178877441,,Unknown,-81.2019112745538 35.941166187535785,,,,,Numbered Thoroughfare Address,,,,10/3/2019 0:00:00,,,Unknown,,State of North Carolina,urn:emergency:uid:gis:ssap9129:alexander.nc.us
38789922,,3706,1,3706 1,,,,,GOLD,Street,,,GOLD Street,,,,,,,,,Los Alamos,Unincorporated,LOS ALAMOS,Los Alamos CDP,LOS ALAMOS,,,,,,,NM,87544,,{E1A1D51A-1F5E-4973-AE73-FB4B47EC3D42},Los Alamos County,,-106.315272591506940,35.883569149938062,13SCV8128071833,,Unknown,-106.31527259150694 35.88356914993806,,,,,Numbered Thoroughfare Address,,7/1/2024 0:00:00,,7/24/2024 0:00:00,N,,Unknown,,University of New Mexico EDAC,{e1a1d51a-1f5e-4973-ae73-fb4b47ec3d42}
51150696,,1000,,1000,,East,,,CANAL,Street,,,East CANAL Street,,,F5,,,,F5,,Athens,NELSONVILLE,NELSONVILLE,,NELSONVILLE,,,,,,Village,OH,45764,,{C632F9AB-EB9F-402B-A240-0B5186587F2C},0,,-82.221654975056921,39.449675633520400,17SLD9488667391,,Unknown,-82.22165497505692 39.4496756335204,,,,,Numbered Thoroughfare Address,,,,6/3/2010 0:00:00,,,Apartment,,State of Ohio,{c632f9ab-eb9f-402b-a240-0b5186587f2c}
15681110,,109,,109,,,,,3rd,Street,,,3rd Street,,,,,,Residential,Residential,,Shelby,Unincorporated,SHELBYVILLE,,,,,,,,,IN,46176,,{B482A546-BBCE-4DDD-8D86-5B8395348D89},Shelby County,,-85.777011999999957,39.514370000000042,16SFJ0513174573,,Unknown,-85.77701199999996 39.51437000000004,,,,731105300331000002,Numbered Thoroughfare Address,,,,4/23/2025 0:00:00,,,RESIDENTIAL 1 FAMILY ON A PLATTED LOT,,Indiana Geographic Information Council,urn:emergency:uid:gis:SSAP:0003839:co.shelby.in.us
83505246,,622,,622,,,,,Aberdeen,Avenue,,,Aberdeen Avenue,,,49,,,,49,,Scott,Unincorporated,Not stated,,,,,,,,,MN,55352,,{CC8C22F3-8529-4BB4-895F-9D62372EB0E4},Jordan,,-93.645889055490400,44.657772636574443,15TVK4879145137,,Unknown,-93.6458890554904 44.65777263657444,,,,27139-220870010,Numbered Thoroughfare Address,Active,6/19/2020 0:00:00,,9/11/2023 0:00:00,,,Unknown,,Geospatial Information Office Minnesota,CC8C22F3-8529-4BB4-895F-9D62372EB0E4
35878399,,3,,3,,,,,Severn,Court,,,Severn Court,,,,,,,,,Burlington,"Burlington, Medford Township",Medford,,,,,,,,,NJ,08055,3203,{C9772F13-AE59-4A02-9B64-2B64C1A74CEB},NJ Office of GIS,,-74.783721786680303,39.837683558704597,18SWK1850509764,,Structure - Rooftop,-74.7837217866803 39.8376835587046,,,,4b0346af-b17d-4041-a734-bfc782afff4f,Numbered Thoroughfare Address,,,,1/13/2022 7:15:25,,,Residence,,State of New Jersey,7fed6cd2-e8c2-4a4a-946f-c173848e4b45
30006649,,415,,415,,,,,LINWOOD POND,Road,,,LINWOOD POND Road,,,,,,,,,Henderson,Unincorporated,HENDERSONVILLE,,,,,,,,,NC,28739,,{3D112BA2-0F90-4806-A9BF-C47CE5AA01A8},,,-82.584402376228510,35.246023345630789,17SLV5584801477,,Unknown,-82.58440237622851 35.24602334563079,,,,,Numbered Thoroughfare Address,,,,1/25/2023 0:00:00,,,Unknown,,State of North Carolina,urn:emergency:uid:gis:ssap:40424:henderson.nc.us
25329911,,729,,729,,,,,Fingerboard Schoolhouse,Road,,,Fingerboard Schoolhouse Road,,,,,,,,,Cecil,Unincorporated,Earleville,,,,,,,,,MD,21919,,{7DE6EBB8-EB8B-4B29-BF3D-7E7EC2E1EABF},,,-75.924683507541715,39.455103029721435,18SVJ2044467689,,Unknown,-75.92468350754172 39.455103029721435,,,,,Numbered Thoroughfare Address,,,,2/14/2024 0:00:00,,,Unknown,,Maryland Department of Information Technology,1646917
35673082,,31,,31,,,,,Augusta,Drive,,,Augusta Drive,,,,,,,,,Burlington,"Burlington, Westampton Township",Westampton,,,,,,,,,NJ,08060,4719,{4C2AA253-ECAA-44EE-897C-7D7DD2D7AAE9},NJ Office of GIS,,-74.796330918220704,40.015990175537603,18TWK1738129551,,Structure - Rooftop,-74.7963309182207 40.0159901755376,,,,ad0a72f4-75c8-4e90-8797-37788065c569,Numbered Thoroughfare Address,,,,1/11/2022 17:51:15,,,Residence,,State of New Jersey,6bf74063-1c5b-4d65-b227-9f5991662114
82167092,,3656,,3656,,,Highway,,N,,,,Highway N,,,,,,,,,Osage,Unincorporated,MORRISON,,,,,,,,,MO,65061,,{0248B0E8-BDA3-4E99-9293-97CDC197EDD1},Osage County,,-91.671331196712899,38.529308278456512,15SXC1581265382,,Structure - Interior,-91.6713311967129 38.52930827845651,,,,,Numbered Thoroughfare Address,,,,2/2/2022 0:00:00,,,Unknown,,Osage County Missouri,{0248B0E8-BDA3-4E99-9293-97CDC197EDD1}
86308218,,39,,39,,,,,WEAVER RUN,Road,,,WEAVER RUN Road,,,,,,,,,Washington,AMWELL TOWNSHIP,WASHINGTON,,,,,,,,,PA,15301,,{DE57D308-AE7D-4170-BB07-63C19E7A8B15},co.washington.pa.us,,-80.203197913250946,40.088423329128567,17TNE6792737875,1207,Unknown,-80.20319791325095 40.08842332912857 1207.36999511,,,,,Numbered Thoroughfare Address,,,,10/30/2009 0:00:00,,,Unknown,,Washington County Pennsylvania,SSAP_co.washington.pa.us_094169
31069467,,4014,,4014,,,,,COPPERFIELD,Drive,,,COPPERFIELD Drive,,,69,,,,69,,Craven,NEW BERN,NEW BERN,,,,,,,,,NC,28562,,{77535AA9-907B-4B79-9702-082EEC0832B4},,,-77.118454211796532,35.096691594766554,18SUD0690085818,0,Unknown,-77.11845421179653 35.096691594766554 0,,,,,Numbered Thoroughfare Address,,3/13/2024 0:00:00,,2/5/2021 0:00:00,,,Unknown,,State of North Carolina,ssap54440@﻿nwbrncpd1.craven.nc.us
56700683,,305,,305,,,,,RAY HILL,Road,,,RAY HILL Road,,,,,,,,,Windham,Unincorporated,WILMINGTON,,,,,,,,,VT,05363,,{A4891728-A770-4267-B418-ADDF0F6D5C28},Vermont Enhanced 911 Board,,-72.880789957818877,42.887605460760014,18TXN7305050512,,Unknown,-72.88078995781888 42.887605460760014,293589,Site ID,,00602038.000,Numbered Thoroughfare Address,,,,1/27/2023 21:56:39,,,SINGLE FAMILY DWELLING,,Vermont Enhanced 911 Board,{A4891728-A770-4267-B418-ADDF0F6D5C28}
83379696,,350,,350,,,,,Saint Peter,Street,,,Saint Peter Street,,,1108,,,,1108,,Ramsey,Unincorporated,Not stated,,,,,,,,,MN,55102,1518,{45A4A348-2CF7-4D83-840F-9346AB3ECBE1},City of Saint Paul,,-93.095015077792880,44.944978182561876,15TVK9250476842,,Unknown,-93.09501507779288 44.944978182561876,,,,27123-062822120134,Numbered Thoroughfare Address,Active,,,10/14/2022 0:00:00,,,Residential,,Geospatial Information Office Minnesota,45A4A348-2CF7-4D83-840F-9346AB3ECBE1
9073266,,312,,312,,,,,VAN BUREN,,,,VAN BUREN,,,,,,,,,Boone,BELVIDERE,BELVIDERE,,,,,,,,,IL,61008,,{8B8D8E57-F9D2-4D1F-B1A3-88CD14316C03},@boonecountysheriff.com,,-88.844738272891988,42.262004306174468,16TCM4784880514,,Unknown,-88.84473827289199 42.26200430617447,,,,,Numbered Thoroughfare Address,,,,12/21/2023 9:42:14,,,Unknown,,State of Illinois,{8b8d8e57-f9d2-4d1f-b1a3-88cd14316c03}
75690569,,9821,,9821,,,,,RAVENSWAY,Drive,,,RAVENSWAY Drive,,,,,,,,,Tarrant,Unincorporated,BENBROOK,,,,,,,,,TX,,,{A5EF6613-44DC-4D1E-9841-05785512D5AD},TC911,,-97.480215366999971,32.671334543000057,14SPB4250315872,,Unknown,-97.48021536699997 32.67133454300006,,,,,Numbered Thoroughfare Address,,,,1/29/2024 0:00:00,,,Unknown,,State of Texas,{a5ef6613-44dc-4d1e-9841-05785512d5ad}
22026147,,103,,103,,,,,POPLAR,Street,,,POPLAR Street,,,1,,,,1,,Middlesex,WATERTOWN,Not stated,,WATERTOWN,,,,,,,MA,02472,,{8AD0EFAA-C750-7505-7AE0-03FAA16683D2},WATERTOWN,UNINC_COMM,-71.179520630999946,42.378628673000037,19TCG2056794117,,Site,-71.17952063099995 42.37862867300004,,,,,Numbered Thoroughfare Address,,,,4/17/2020 0:00:00,,,RESIDENTIAL,,MASSGIS Massachusetts,{8AD0EFAA-C750-7505-7AE0-03FAA16683D2}
14219222,,146,,146,,,,,Ems W25,Lane,,,Ems W25 Lane,,,,,,,,,Kosciusko,Unincorporated,NORTH WEBSTER,,,,,,,,,IN,46555,,{4B871815-25E7-4277-8185-0784E01B32DC},Kosciusko County,,-85.675150065999958,41.320095171000048,16TFL1088275138,,Unknown,-85.67515006599996 41.32009517100005,,,,430814100209000023,Numbered Thoroughfare Address,,,,4/23/2025 0:00:00,,,RESIDENTIAL 1 FAMILY ON A PLATTED LOT,,Indiana Geographic Information Council,urn:emergency:uid:gis:SSAP:23144:kosciusko.in.us
14700491,,4821,,4821,,,,,Pine,Ridge,,,Pine Ridge,,,,,,,,,Bartholomew,Unincorporated,COLUMBUS,,,,,,,,,IN,47201,,{BF2F46A2-1ABB-4F84-9DD5-E75DB7BCB4A7},Bartholomew County,,-85.975548790999937,39.196622646000037,16SEJ8846339096,,Unknown,-85.97554879099994 39.19662264600004,,,,039528000001000005,Numbered Thoroughfare Address,,,,4/23/2025 0:00:00,,,COMMERCIAL 40  PLUS FAMILY APARTMENTS,,Indiana Geographic Information Council,urn:emergency:uid:gis:SSAP:0028948:bartholomew.in.
18088167,,89,,89,,,,,RAIDER HOLLOW,Lane,,,RAIDER HOLLOW Lane,,,,,,,,,Hart,UNINCORPORATED,Not stated,,MUNFORDVILLE,,,,,,,KY,,,{B8C9097F-47EA-48CC-BE52-4A2CCDFAAE8C},kentuckystatepolice.org,,-85.958299633890718,37.336182947377736,16SEG9227832676,,Unknown,-85.95829963389072 37.336182947377736,,,,,Numbered Thoroughfare Address,,,,6/13/2022 11:33:40,,,Unknown,,State of Kentucky,050_SSAP_001952
63841274,,271,,271,,,,,Brownsburg,Road,,,Brownsburg Road,,,,,,,,,Rockbridge,Rockbridge County,Rockbridge Baths,,,,,,,,,VA,24473,,{E3F24ED5-D397-4360-B01C-015F93E815FC},Rockbridge County,,-79.353312344056903,37.760026485475699,17SPB4504980466,,Structure - Rooftop,-79.3533123440569 37.7600264854757,,,,,Numbered Thoroughfare Address,,9/22/2023 0:00:00,,9/22/2023 0:00:00,,,Unknown,,Virginia Geographic Information Network,782030
87985048,,16055,,16055,,East,,,RANCHETTE,Road,,,East RANCHETTE Road,,,,,,,,,Rogers,UNINCORPORATED,INOLA,,,,,,,,,OK,74036,,{203D8C7F-A0BF-4ADA-881F-D9F0EF901159},cog.incog.ok.gov,psap.5722.ok.gov,-95.546828412999957,36.172048106000034,15STA7093606037,,Structure - Rooftop,-95.54682841299996 36.172048106000034,,,,,Numbered Thoroughfare Address,,,,5/7/2024 11:57:23,,,Unknown,,State of Oklahoma,{203d8c7f-a0bf-4ada-881f-d9f0ef901159}
22650358,,78,,78,,South,,,BAYFIELD,Road,,,South BAYFIELD Road,,,,,,,,,Norfolk,QUINCY,Not stated,,QUINCY,,,,,,,MA,02171,,{8AD0EFB3-F766-7665-7AE0-03FAA16683D2},QUINCY,UNINC_COMM,-71.020410573999982,42.281258660000049,19TCG3340982981,,Site,-71.02041057399998 42.28125866000005,,,,,Numbered Thoroughfare Address,,,,3/19/2014 0:00:00,,,RESIDENTIAL,,MASSGIS Massachusetts,{8AD0EFB3-F766-7665-7AE0-03FAA16683D2}
35493803,,354,,354,,,,,Georges,Road,,,Georges Road,,,,,,,,,Middlesex,"Middlesex, South Brunswick Township",Dayton,,,,,,,,,NJ,08810,1425,{CEE04AD5-8CA0-4D41-8ED5-23DBD76C82E7},NJ Office of GIS,,-74.511532852333801,40.375577538777399,18TWK4146669558,,Structure - Rooftop,-74.5115328523338 40.3755775387774,,,,359bea27-c85c-413f-9c03-022488e47915,Numbered Thoroughfare Address,,,,1/15/2022 22:11:53,,,Residence,,State of New Jersey,ef8e9346-9b50-42ef-8545-21aaacfda8bb
87571891,,1819,,1819,,,,,COUNTY ROAD 359,,,,COUNTY ROAD 359,,,,,,,,,Delaware,UNINCORPORATED,EUCHA,,,,,,,,,OK,74342,,{71AB12DC-A459-4391-883F-9F851AE5E06A},psap.5628.ok.gov,psap.5628.ok.gov,-94.973735704999967,36.497405087000061,15SUA2322540931,,Unknown,-94.97373570499997 36.49740508700006,,,,,Numbered Thoroughfare Address,,9/1/2008 19:00:00,12/29/1899 18:00:00,9/1/2008 19:00:00,,,Unknown,,State of Oklahoma,{71ab12dc-a459-4391-883f-9f851ae5e06a}
80469115,,22499,,22499,,,Highway,,22,,East,,Highway 22 East,,,,,,,,,Tallapoosa,Daviston,Daviston,,,,,,,,,AL,36256,,{FB2F7015-AB1B-4377-9BF6-0FC6224586FF},,,-85.647538649863293,33.052131238265574,16SFB2627157879,,Unknown,-85.6475386498633 33.052131238265574,,,,,Numbered Thoroughfare Address,,,,8/17/2021 0:00:00,,,Unknown,,Alabama 911 Board,{FB2F7015-AB1B-4377-9BF6-0FC6224586FF}
2032112,,8692,,8692,,North,,,Ironwood,Drive,,,North Ironwood Drive,,,,,,,,,Mohave,Unincorporated,Kingman,,Kingman,,,,,,,AZ,86401,,{4578CE03-1FC3-4F64-941F-262B0CFC5DB6},mohave911.az.gov,,-113.859874711999964,35.379702297000051,12STE4020718907,,Unknown,-113.85987471199996 35.37970229700005,,,,,Numbered Thoroughfare Address,,,,3/5/2020 9:49:46,,,Unknown,,State of Arizona,SITE92669@mohave911.az.gov
24668599,,9814,,9814,,,,,Connecticut,Avenue,,,Connecticut Avenue,,,,,,,,,Montgomery,Unincorporated,Kensington,,,,,,,,,MD,20895,,{6F9AD93C-7DF1-4870-BD48-A268AB68ED3F},,,-77.078781138464080,39.016980113636457,18SUJ2002920716,,Unknown,-77.07878113846408 39.01698011363646,,,,,Numbered Thoroughfare Address,,,,2/14/2024 0:00:00,,,Unknown,,Maryland Department of Information Technology,870307
38505029,,171,,171,,,,,INCA,Street,,,INCA Street,,,,,,,,,Doña Ana,Unincorporated,,Rincon CDP,RINCON,,,,,,,NM,87940,,{5765DB33-D399-4D8A-A048-3B4967C748F9},Dona Ana County,,-107.070650348568563,32.671144846338464,13SCS0583616725,,Unknown,-107.07065034856856 32.671144846338464,,,,,Numbered Thoroughfare Address,,8/4/2023 0:00:00,,8/17/2023 0:00:00,N,,Unknown,,University of New Mexico EDAC,{5765db33-d399-4d8a-a048-3b4967c748f9}
62594492,,345,,345,,Northeast,,,170TH,Street,,,Northeast 170TH Street,,,,,,,,,King,SHORELINE,Not stated,,,,,,,,,WA,98155,,{9AF7DA60-BAB0-47D0-A057-FF98BC332A37},kingcounty.gov,,-122.326184036999962,47.751694431000033,10TET5050488922,0,Unknown,-122.32618403699996 47.75169443100003 0,,,,,Numbered Thoroughfare Address,,,,5/14/2024 14:42:08,,,Single Family,,State of Washington,urn:emergency:uid:gis:SSAP:304898:kingcounty.gov
1070823,,914,,914,,West,,,Keating,Avenue,,,West Keating Avenue,,,,,,,,,Maricopa,Mesa,Not stated,,,,,,,,,AZ,85210,,{64998FC5-E023-46C1-A6E1-3A0DE5281505},MARICOPA911.AZ.GOV,,-111.853592818999971,33.366389323000078,12SVB2059092231,,Unknown,-111.85359281899997 33.36638932300008,,,,,Numbered Thoroughfare Address,,,,2/12/2022 14:25:38,,,Unknown,,State of Arizona,AP1084926@MARICOPA911.AZ.GOV
4566872,,32,,32,,,,,HIGHLANDS,Lane,,,HIGHLANDS Lane,,,UNIT 209,,,,UNIT 209,,Eagle,BEAVER CREEK,Not stated,,,,,,,,,CO,81620,,{37B14C4E-63F4-410F-9277-E1FF6BF9D150},,,-106.513762678250998,39.604229639612200,13SCD7003984926,,Unknown,-106.513762678251 39.6042296396122,,,,,Numbered Thoroughfare Address,,,,6/1/2022 0:00:00,,,Unknown,,Colorado OIT GIS,1211664
1343082,,9411,,9411,,East,,,Jenan,Drive,,,East Jenan Drive,,,,,,,,,Maricopa,Scottsdale,Not stated,,,,,,,,,AZ,85260,,{4D36629B-DCC3-4E8C-9953-01497DB12C3A},MARICOPA911.AZ.GOV,,-111.879778168999962,33.593890361000035,12SVC1836817475,,Unknown,-111.87977816899996 33.593890361000035,,,,,Numbered Thoroughfare Address,,,,2/12/2022 14:09:00,,,Unknown,,State of Arizona,AP747329@MARICOPA911.AZ.GOV
28178359,,501,,501,,West,,,7TH,Street,,,West 7TH Street,,,,,,,,,Beaufort,WASHINGTON,WASHINGTON,,,,,,,,,NC,27889,,{A597C896-F585-495C-8793-7D0FFF0A25D0},,,-77.056810405594121,35.551058123140457,18SUE1356636102,,Unknown,-77.05681040559412 35.55105812314046,,,,,Numbered Thoroughfare Address,,,,12/16/2024 2:03:33,,,Unknown,,State of North Carolina,SSAP_219381@buftnccc1.beaufort.nc.us
58275270,,4455,,4455,,South,,,IRONWOOD,Drive,,,South IRONWOOD Drive,,,,,,,,,Washington,ST GEORGE CITY,SAINT GEORGE,,,,,,,,,UT,84790,,{8E5CF7BE-35A9-4060-BEE0-81D8A4DEE7AD},WASHINGTON COUNTY,ST GEORGE,-113.618193348439590,37.031978484987121,12STG6711801625,,Unknown,-113.61819334843959 37.03197848498712,,,,SG-SUR-1-1B-44,Numbered Thoroughfare Address,,,,2/18/2025 0:00:00,,,Residential,,Utah Geospatial Resource Center (UGRC),ST GEORGE | 4455 S IRONWOOD DR
40945503,,3302,,3302,,,,,Hyde Park,Boulevard,,,Hyde Park Boulevard,,,,,,,,,Niagara,Niagara Falls,Niagara Falls,,,,,,,,,NY,14305,,{0684A486-B9BB-4909-A0CB-8FA22B747485},911 Addressing Authority,,-79.034474932999956,43.117654810000033,17TPH5990275755,,Structure - Rooftop,-79.03447493299996 43.11765481000003,,,,,Numbered Thoroughfare Address,Active,,,4/22/2025 0:00:00,,,Unknown,,New York State Geospatial Services,NIAG055959
45729931,,272,,272,,,,,Benton Hollow,Road,,,Benton Hollow Road,,,,,,,,,Sullivan,Neversink,Woodbourne,,,,,,,,,NY,12788,,{818750A5-821F-45BA-8104-B779926040F3},911 Addressing Authority,,-74.596481391999987,41.838999658000034,18TWM3350231979,,Structure - Rooftop,-74.59648139199999 41.838999658000034,,,,,Numbered Thoroughfare Address,Active,,,8/28/2019 13:48:49,,,Unknown,,New York State Geospatial Services,SULL021067
61525060,,13310,,13310,,East,,,Mission,Avenue,,,East Mission Avenue,,,10-117,,,,10-117,,Spokane,Spokane Valley,Spokane Valley,,,,,,,,,WA,99216,,{3D801D55-1376-454B-9257-6AC23F85C381},SREC911.org,,-117.225754503999951,47.669481677000078,11TMN8305279590,,Unknown,-117.22575450399995 47.66948167700008,,,,,Numbered Thoroughfare Address,,,,9/29/2022 16:27:07,,,"Unit, Condo, Office or Suite",,State of Washington,urn:emergency:uid:gis:SSAP:78367:@SREC911.org
6310576,,528,,528,,,,,Lambert,Road,,,Lambert Road,,,,,,,,,New Haven,Orange,Not stated,Orange CDP,ORANGE,,,,,,,CT,06477,,{51ED7398-ABBC-45F1-A38C-86C5CE34AA99},State of Connecticut Department of Emergency Services and Public Protection,,-73.017442806999597,41.277398278913800,18TXL6603971447,,Structure - Rooftop,-73.0174428069996 41.2773982789138,,,,,Numbered Thoroughfare Address,,,,3/4/2022 0:00:00,,,Unknown,,State of Connecticut,794011
86123035,,662,,662,,,,,Stanbridge,Street,,,Stanbridge Street,,,,,,,,,Montgomery,Norristown Borough,Norristown,,,,,,,,,PA,19401,,{5ED0BFDE-BB8B-4EF4-8CED-8AB5D1CA6A2B},montgomery.state.pa.us,,-75.351486545049042,40.123667079213376,18TVK7005141542,0,Parcel - Other,-75.35148654504904 40.12366707921338 0,,,Norristown Borough,130034740005,Numbered Thoroughfare Address,,,,12/18/2023 22:47:43,4,,Unknown,,Montgomery County Pennsylvania,SSAP678391@montgomery.state.pa.us
82999939,,10165,,10165,,,,,Yorktown,Lane,North,,Yorktown Lane North,,,,,,,,,Hennepin,Unincorporated,Not stated,,,,,,,,,MN,55369,,{F58FADB7-1134-42CA-BC19-E4A819F85051},Hennepin,,-93.421564849244220,45.139032312812446,15TVK6685498481,,Unknown,-93.42156484924422 45.139032312812446,,,,,Numbered Thoroughfare Address,Active,1/1/1900 0:00:00,1/1/1900 0:00:00,3/27/2023 0:00:00,,,Unknown,,Geospatial Information Office Minnesota,F58FADB7-1134-42CA-BC19-E4A819F85051
51069821,,657,,657,,,,,KATHRYN,Drive,,,KATHRYN Drive,,,,,,,,,Clinton,WILMINGTON,WILMINGTON,,WILMINGTON,,,,,,Village,OH,45177,,{9D15F272-15D3-46E3-A88A-6158E8C9212F},0,,-83.820759199466636,39.453601621365799,17SKD5729370913,,Unknown,-83.82075919946664 39.4536016213658,,,,,Numbered Thoroughfare Address,,,,4/27/2012 0:00:00,,,House,,State of Ohio,{9d15f272-15d3-46e3-a88a-6158e8c9212f}
43522247,,294,,294,,West,,,19th,Street,,,West 19th Street,,,,,,,,,Suffolk,Babylon,Deer Park,Deer Park CDP,Deer Park,,,,,,,NY,11729,,{7E57C546-464C-4B7E-BEEF-9822F750DE02},911 Addressing Authority,,-73.341952721999974,40.746650847000069,18TXL3997911955,,Structure - Rooftop,-73.34195272199997 40.74665084700007,,,,,Numbered Thoroughfare Address,Active,,,4/22/2025 0:00:00,,,Unknown,,New York State Geospatial Services,SUFF135129
79935995,,393,,393,,,County Road,,5523,,,,County Road 5523,,,,,,,,,Pike,Unincorporated,TROY,,,,,,,,,AL,36081,,{56143EC4-81A6-4F72-96E3-E56CBAFDB763},,,-85.839262893730293,31.760705847870380,16RFA0992414498,,Unknown,-85.8392628937303 31.76070584787038,,,,,Numbered Thoroughfare Address,,,,7/26/2024 0:00:00,,,Unknown,,Alabama 911 Board,{56143EC4-81A6-4F72-96E3-E56CBAFDB763}
2218636,,10970,,10970,,East,,,Lady Bug,Place,,,East Lady Bug Place,,,,,,,,,Yavapai,Unincorporated,Prescott Valley,,Yavapai,,,,,,,AZ,86315,,{93068869-6FBA-4195-802E-EC295514C6E3},yavapai911.az.gov,,-112.272261895999975,34.710302605000038,12SUD8349241654,,Unknown,-112.27226189599997 34.71030260500004,,,,,Numbered Thoroughfare Address,,3/25/2024 4:43:54,,4/26/2018 0:00:00,,,Unknown,,State of Arizona,YC77151@yavapai911.az.gov
87864962,,196245,,196245,,North,,,4210,Road,,,North 4210 Road,,,,,,,,,Pushmataha,UNINCORPORATED,ANTLERS,,,,,,,,,OK,74523,,{501B6E40-377C-4E17-BC6F-1FB0D6377AEB},ven.sdr.ok.gov,psap.5720.ok.gov,-95.536224293999965,34.167436602000066,15STT6621783628,,Unknown,-95.53622429399996 34.167436602000066,,,,,Numbered Thoroughfare Address,,1/22/2013 6:31:54,,9/21/2021 4:52:10,,,Unknown,,State of Oklahoma,{501b6e40-377c-4e17-bc6f-1fb0d6377aeb}
45803489,,1868,,1868,,,State Route,,220,,,,State Route 220,,,,,,,,,Chenango,McDonough,McDonough,,,,,,,,,NY,13801,,{3D6C6C52-317D-4B3E-B9C6-DCF3BB191AC3},911 Addressing Authority,,-75.749505273999944,42.494306039000037,18TVN3841004932,,Structure - Rooftop,-75.74950527399994 42.49430603900004,,,,,Numbered Thoroughfare Address,Active,,,4/6/2020 13:00:31,,,Unknown,,New York State Geospatial Services,CHEN025834
58769829,,2307,,2307,,,,,Wheeler,Avenue,,,Wheeler Avenue,,,Apt 190,,,,Apt 190,,Crittenden,West Memphis,West Memphis,,,West Memphis,,,,,,AR,72301,4856,{F8D75F3F-7E9E-4E6D-81C0-DA5C4FA25D3C},035,,-90.156678906120334,35.155798071140005,15SYU5900194022,,Unknown,-90.15667890612033 35.155798071140005,,,,,Numbered Thoroughfare Address,,,,2/21/2024 0:00:00,,,Unknown,,Arkansas Geographic Information Office,
31408257,,365,,365,,North,,,NEW HOPE,Road,,,North NEW HOPE Road,,,5,,,,5,,Gaston,GASTONIA,GASTONIA,,,,,,,,,NC,28054,,{77DA80E1-779D-4C3C-B472-93373FBE7108},,,-81.150271649007877,35.267586630838238,17SMV8633202728,,Unknown,-81.15027164900788 35.26758663083824,,,,,Numbered Thoroughfare Address,,,,5/17/2012 16:43:16,,,Unknown,,State of North Carolina,urn:emergency:uid:gis:SSAP:83676:gaston.nc.us
32927745,,45,,45,,,,,CRESTVIEW,Street,,,CRESTVIEW Street,,,,,,,,,Haywood,CANTON,CANTON,,,,,,,,,NC,28716,,{4173D751-B635-4068-9031-47DCECB6EF83},,,-82.837649554561750,35.521490860787864,17SLV3337232429,,Unknown,-82.83764955456175 35.521490860787864,,,,,Numbered Thoroughfare Address,,,,6/3/2020 0:00:00,,,Unknown,,State of North Carolina,SSAP_33637@hywdncen1.haywood.nc.us
43154627,,279,,279,,,,,Lakeland,Avenue,,,Lakeland Avenue,,,,,,,,,Suffolk,Islip,Sayville,Sayville CDP,Sayville,,,,,,,NY,11782,,{9EB4FEFB-4325-42B2-BB30-FD2935B71642},911 Addressing Authority,,-73.090394215999936,40.749389678000057,18TXL6121212691,,Structure - Rooftop,-73.09039421599994 40.74938967800006,,,,,Numbered Thoroughfare Address,Active,,,4/22/2025 0:00:00,,,Unknown,,New York State Geospatial Services,SUFF150652
57718384,,180,,180,,East,,,ROLLING HILLS,Drive,,,East ROLLING HILLS Drive,,,,,,,,,Davis,CENTERVILLE,CENTERVILLE,,,,,,,,,UT,84014,,{8C48C38A-178B-4A6D-BC78-7E67E21F5E66},DAVIS COUNTY,CENTERVILLE,-111.876169377452158,40.948527101105164,12TVL2625533412,,Unknown,-111.87616937745216 40.948527101105164,,,,071340029,Numbered Thoroughfare Address,,,,2/19/2025 0:00:00,,,Residential,,Utah Geospatial Resource Center (UGRC),CENTERVILLE | 180 E ROLLING HILLS DR
73258534,,102,,102,,,,,ELGIN,Avenue,,,ELGIN Avenue,,,,,,,,,Hockley,Unincorporated,Not stated,,,,,,,,,TX,,,{EF8D323F-6EC5-41D5-8AD5-4538534FF884},CSEC,,-102.355906201999971,33.586328551000065,13SGT4538719424,,Unknown,-102.35590620199997 33.586328551000065,,,,,Numbered Thoroughfare Address,,,,12/12/2023 0:00:00,,,Unknown,,State of Texas,{ef8d323f-6ec5-41d5-8ad5-4538534ff884}
56392764,,801,,801,,,,,ROHR,Road,,,ROHR Road,,,,,,,,,Preston,Unincorporated,MASONTOWN,,,,,,,,,WV,26542,,{733D1EC9-BC31-413C-8FDC-47CA939AC46D},"Preston, West Virginia  Emergency Management Division Gis Unit",West Virginia Statewide Addressing & Mapping System,-79.805244590000001,39.572126660000002,17SPD0261980950,,Unknown,-79.80524459 39.57212666,,,,,Numbered Thoroughfare Address,Active,,,2/2/2022 0:00:00,,,Unknown,,PRESTON West Virginia Emergency Management Division GIS Unit,SID54077-4141
5372063,,8026,,8026,,,,,Ryan Gulch,Road,,,Ryan Gulch Road,,,UNIT C-8,,,,UNIT C-8,,Summit,Unincorporated Summit County,Not stated,,,,,,,,,CO,80498,,{EC41F820-478A-4E6E-A5A0-E056FF30D429},,,-106.088316155130002,39.619249686959300,13SDD0658686064,,,-106.08831615513 39.6192496869593,,,,,Numbered Thoroughfare Address,,,,5/1/2022 0:00:00,,,Unknown,,Colorado OIT GIS,2016855
35502920,,289,,289,,,,,Main,Street,,,Main Street,,,UNIT 9K,,,,UNIT 9K,,Middlesex,"Middlesex, Spotswood Borough",Spotswood,,,,,,,,,NJ,08884,2323,{F449921B-5F21-4727-84ED-98D03FC88900},NJ Office of GIS,,-74.381139555935903,40.396654470941300,18TWK5251871967,,Structure - Rooftop,-74.3811395559359 40.3966544709413,,,,66a267b0-3874-4192-9784-8ab7681dbf84,Numbered Thoroughfare Address,,,,1/15/2022 22:35:40,,,Residence,,State of New Jersey,4913e713-4a57-49bc-a115-8377bedb2d3b
30648518,,500,,500,,,,,JUSTICE HEIGHTS,Street,,,JUSTICE HEIGHTS Street,,,,,,,,,Wake,APEX,APEX,,,,,,,,,NC,27502,,{12900458-12DC-46AD-B584-54976FB33F4F},,,-78.861421455077917,35.726699438297096,17SPV9342255744,,Unknown,-78.86142145507792 35.726699438297096,,,,,Numbered Thoroughfare Address,,,,1/31/2022 0:00:00,,,Unknown,,State of North Carolina,urn:emergency:uid:gis:SSAP:{5324985}:wake.nc.us
37340832,,2,G,2 G,,,,,Foxwood,Drive,,,Foxwood Drive,,,,,,,,,Morris,"Morris, Morris Plains Borough",Morris Plains,,,,,,,,,NJ,07950,2619,{4E20382A-13B0-43DF-A50A-81C5F53A51C1},Morris County,,-74.476245044440603,40.849386203340401,18TWL4414822169,,Unknown,-74.4762450444406 40.8493862033404,,,,6e49b441-6aed-4b75-ab2e-15c8d1001b0b,Numbered Thoroughfare Address,,,,1/14/2022 13:03:27,,,Residence,,State of New Jersey,ed252b33-eabc-4c17-856b-8ee067f53af7
71485108,,907,,907,,East,,,CHERRY,Street,,,East CHERRY Street,,,,,,,,,Grayson,Unincorporated,Not stated,,,,,,,,,TX,75090,,{E64A6871-88CC-43BA-B34F-00034D34A444},CSEC,,-96.597966090999989,33.636201611000047,14SQC2278924407,,Unknown,-96.59796609099999 33.63620161100005,,,,,Numbered Thoroughfare Address,,,,11/30/2017 0:00:00,,,Unknown,,State of Texas,{e64a6871-88cc-43ba-b34f-00034d34a444}
79667524,,634,,634,,,,,Waterford,Way,,,Waterford Way,,,,,,,,,Calhoun,UNINCORPORATED,Not stated,,JACKSONVILLE,,,,,,,AL,,,{C84F281A-F8A9-4480-A473-0BA8B932645C},,,-85.796198044386870,33.784090427297940,16SFC1145238867,,Unknown,-85.79619804438687 33.78409042729794,,,,,Numbered Thoroughfare Address,,,,9/20/2024 0:00:00,,,Unknown,,Alabama 911 Board,{C84F281A-F8A9-4480-A473-0BA8B932645C}
82609798,,11984,,11984,,,,,285th,Street,,,285th Street,,,,,,,,,Chisago,Unincorporated,Not stated,,,,,,,,,MN,55045,,{E76D518B-9191-4D11-8B11-B38979321C97},Chisago,,-92.863948556714448,45.363946101091365,15TWL1065423390,,Unknown,-92.86394855671445 45.363946101091365,,,,02.01807.11,Numbered Thoroughfare Address,,,,7/7/2005 0:00:00,,,Unknown,,Geospatial Information Office Minnesota,00663798-18975-11984
14941484,,1111,,1111,,,,,Clark,Street,,,Clark Street,,,,,,,,,Floyd,New Albany,NEW ALBANY,,,,,,,,,IN,47150,,{162EEFF5-CE2E-4B2C-9111-6E166E03035C},Floyd County,,-85.814437580999936,38.298986863000039,16SFH0366639653,,Unknown,-85.81443758099994 38.29898686300004,,,,220504200710000008,Numbered Thoroughfare Address,,,,4/23/2025 0:00:00,,,RESIDENTIAL 1 FAMILY ON A PLATTED LOT,,Indiana Geographic Information Council,urn:emergency:uid:gis:SSAP:0013227:floydcounty.in.
89568998,,3909,,3909,,,,,GALLERIA POINTE,Circle,,,GALLERIA POINTE Circle,,,,,,,,,York,ROCK HILL,ROCK HILL,,,,,,,,,SC,29730,3572,{99C79006-28CE-46C6-8442-161D8A358B98},YORK,,-80.972736821435916,34.946416160921039,17SNU0248967101,,Unknown,-80.97273682143592 34.94641616092104,,,,,Numbered Thoroughfare Address,,,,6/29/2012 18:10:57,,,APARTMENT,,York County South Carolina,urn:emergency:uid:gis:SSAP:32929:YORKCOUNTY.SC.US
47423446,,92,,92,,,,,GREENFIELD,Court,,,GREENFIELD Court,,,,,,,,,Knox,Unincorporated,HOWARD,,,,,,,,Village,OH,43028,,{944EF6E0-D4F9-4C7F-BC28-13AE79CC7B1B},,,-82.357638782150985,40.434539331074561,17TLE8484876873,,Unknown,-82.35763878215099 40.43453933107456,,,,,Numbered Thoroughfare Address,,,,3/30/2025 0:00:00,,,Unknown,,State of Ohio,{944ef6e0-d4f9-4c7f-bc28-13ae79cc7b1b}
60775686,,6058,,6058,,,,,RADIANCE,Boulevard,East,,RADIANCE Boulevard East,,,,,,,,,Pierce,Fife,Fife,,,,,,,,,WA,98424,,{9C61568D-F6E1-4DF7-9AA9-795EFDF076DA},piercecountywa.gov,,-122.347713967999994,47.226649634000069,10TET4938030557,,Unknown,-122.347713968 47.22664963400007,,,,,Numbered Thoroughfare Address,,,,3/17/2025 9:36:24,,,Unknown,,State of Washington,urn:emergency:uid:gis:SSAP:136520:piercecountywa.g
78211143,,1937,,1937,,,,,Denas Cove,Road,,,Denas Cove Road,,,,,,,,,St. Clair,Unincorporated,Ragland,,,,,,,,,AL,35131,,{15D68E1F-E05D-42CC-AADA-2562CE053140},,,-86.161421093920040,33.701853843243406,16SEC7771129414,,Unknown,-86.16142109392004 33.701853843243406,,,,,Numbered Thoroughfare Address,,,,1/3/2024 17:49:39,,,Unknown,,Alabama 911 Board,{15D68E1F-E05D-42CC-AADA-2562CE053140}
56395807,,246,,246,,,,,HUNDLEY,Street,,,HUNDLEY Street,,,,,,,,,Preston,Masontown,MASONTOWN,,,,,,,,,WV,26542,,{3A2EA4F6-ED67-4832-A2B6-DEAC9B9AE0B8},"Preston, West Virginia  Emergency Management Division Gis Unit",West Virginia Statewide Addressing & Mapping System,-79.801215520000000,39.555138839999998,17SPD0299079070,,Unknown,-79.80121552 39.55513884,,,,,Numbered Thoroughfare Address,Active,,,2/2/2022 0:00:00,,,Unknown,,PRESTON West Virginia Emergency Management Division GIS Unit,SID54077-1874
81652914,,1254,,1254,,,,,BEAVER CREEK,Road,,,BEAVER CREEK Road,,,,,,,,,St. Louis,Unincorporated,CHESTERFIELD,,,,,,,,,MO,63017,,{E4366539-9B36-4B7A-BCAE-120AE44C90FC},,,-90.535428307455362,38.653517419534516,15SYC1446381210,,Structure - Interior,-90.53542830745536 38.653517419534516,,,,,Numbered Thoroughfare Address,,,,3/13/2024 0:00:00,,,Unknown,,St Louis County Missouri,{E4366539-9B36-4B7A-BCAE-120AE44C90FC}
5670575,,78,,78,,,,,Devils Garden,Road,,,Devils Garden Road,,,,,,,,,Fairfield,Norwalk,Not stated,,NORWALK,,,,,,,CT,06854,,{F4AABFEC-1EB7-42F5-9C70-5E199014FFB8},State of Connecticut Department of Emergency Services and Public Protection,,-73.441662417888196,41.083610240955998,18TXL3089549208,,Unknown,-73.4416624178882 41.083610240956,,,,,Numbered Thoroughfare Address,,,,3/4/2022 0:00:00,,,Unknown,,State of Connecticut,154010
21880065,,86,,86,,,,,HEMLOCK,Drive,,,HEMLOCK Drive,,,204,,,,204,,Worcester,GARDNER,Not stated,,GARDNER,,,,,,,MA,01440,,{8AD0EFBC-ABF7-BF75-7AE0-03FAA16683D2},GARDNER,UNINC_COMM,-71.995580909999944,42.557258680000075,19TBH5407916001,,Structure - Rooftop,-71.99558090999994 42.557258680000075,,,,,Numbered Thoroughfare Address,,,,4/21/2015 0:00:00,,,RESIDENTIAL,,MASSGIS Massachusetts,{8AD0EFBC-ABF7-BF75-7AE0-03FAA16683D2}
71688326,,15930,,15930,,,,,MARKET,Street,,,MARKET Street,,,,,,,,,Harris,Unincorporated,CHANNELVIEW,,,,,,,,,TX,77530,,{1BC59721-1DE4-4886-86D8-2B3DAB23291A},CP,,-95.119891382999981,29.773231718000034,15RTN9505495541,,Unknown,-95.11989138299998 29.773231718000034,,,,,Numbered Thoroughfare Address,,,,7/22/2024 0:00:00,,,Unknown,,State of Texas,{1bc59721-1de4-4886-86d8-2b3dab23291a}
53984488,,46,,46,,,,,COUNTRY AIR,Lane,,,COUNTRY AIR Lane,,,,,,,,,Coffee,Unincorporated,MANCHESTER,,,,,,,,,TN,37355,,{10415CF2-D008-4A9A-9467-69974082F4F8},COFFEE_911,,-86.033281891177111,35.539985282910997,16SEE8763233357,,Unknown,-86.03328189117711 35.539985282911,,,,,Numbered Thoroughfare Address,,6/8/2011 0:00:00,,3/14/2013 0:00:00,,,Unknown,,TN STS GIS Services,COFFEE_8930
79584471,,6543,,6543,,,Highway,,13,,North,,Highway 13 North,,,,,,,,,Fayette,Unincorporated,Not stated,,,,,,,,,AL,,,{DA668327-F16A-4E97-A46C-D210BE9641B0},,,-87.648234591902749,33.726017680905606,16SDC3994431966,,Unknown,-87.64823459190275 33.726017680905606,,,,,Numbered Thoroughfare Address,,,,9/20/2024 0:00:00,,,Unknown,,Alabama 911 Board,{DA668327-F16A-4E97-A46C-D210BE9641B0}
62293573,,246,,246,,West,,,4TH,Street,,,West 4TH Street,,,,,,,,,Snohomish,UNINCORPORATED,ARLINGTON,,,,,,,,,WA,98223,,{318E9A19-77E4-4BA5-9B42-DFF5B1AEA83A},snoco.org,,-122.130549106999979,48.195669981000037,10UEU6461138413,0,Unknown,-122.13054910699998 48.19566998100004 0,,,,,Numbered Thoroughfare Address,,11/22/2010 15:57:42,,11/8/2023 21:37:26,,,Unknown,,State of Washington,urn:emergency:uid:gis:SSAP:1738900:snoco.org
51910634,,800,,800,,,,,BELTON,Road,,,BELTON Road,,,,,,,,,Lauderdale,Unincorporated,RIPLEY,,,,,,,,,TN,38063,,{0C6B5707-EC4E-4DE2-B243-D3FC8BA4891B},LDALE 911 ADDRESSING OFFICE,,-89.463862125407530,35.736166781779048,16SBE7717857485,,Unknown,-89.46386212540753 35.73616678177905,,,,,Numbered Thoroughfare Address,,7/1/2006 0:00:00,,7/25/2014 0:00:00,,,Unknown,,TN STS GIS Services,LAUDERDALE_12391
32888647,,282,,282,,,,,FALCON RIDGE,Lane,,,FALCON RIDGE Lane,,,,,,,,,Wilkes,Unincorporated,FERGUSON,,,,,,,,,NC,28624,,{78D26F58-3A2B-4E68-9996-3C892DCFCF99},,,-81.391410329328849,36.116146038129578,17SMV6477496901,,Unknown,-81.39141032932885 36.11614603812958,,,,,Numbered Thoroughfare Address,,8/2/2022 19:55:31,,1/31/2025 16:24:32,,,Unknown,,State of North Carolina,SAP_40024@wlksncso1.wilkes.nc.us
45922078,,67,,67,,,,,Erie,Street,,,Erie Street,,,,,,,,,Tioga,Owego,Owego,,,,,,,,,NY,13827,,{A323F4D3-6F5B-427E-AD33-D57651418A7F},911 Addressing Authority,,-76.263329307999982,42.108455980000031,18TUM9555162590,,Structure - Rooftop,-76.26332930799998 42.10845598000003,,,,,Numbered Thoroughfare Address,Active,,,5/26/2017 15:09:53,,,Unknown,,New York State Geospatial Services,TIOG020349
77202906,,8717,,8717,,,,,CALVARY,Court,,,CALVARY Court,,,,,,,,,Webb,Unincorporated,LAREDO,,,,,,,,,TX,78045,,{A8233045-4118-4BC3-8658-4788D9392A9E},CSEC,,-99.456342083999971,27.596735319000061,14RMR5496552615,,Unknown,-99.45634208399997 27.59673531900006,,,,,Numbered Thoroughfare Address,,,,3/22/2019 0:00:00,,,Unknown,,State of Texas,{a8233045-4118-4bc3-8658-4788d9392a9e}
62363368,,2017,,2017,,Southeast,,,17TH,Court,,,Southeast 17TH Court,,,,,,,,,King,RENTON,Not stated,,,,,,,,,WA,98055,,{0EE826F9-F4A2-43DD-A9B6-9D78F134790A},kingcounty.gov,,-122.191756321999947,47.464649660000077,10TET6091257117,0,Unknown,-122.19175632199995 47.46464966000008 0,,,,,Numbered Thoroughfare Address,,,,10/30/2023 23:27:37,,,Single Family,,State of Washington,urn:emergency:uid:gis:SSAP:15042:kingcounty.gov
45390719,,24,,24,,,,,Natick,Street,,,Natick Street,,,,,,,,,Richmond,Unincorporated,Staten Island,,,,,,,,,NY,10306,,{2675336D-6215-4115-B1CC-B5DBC775550C},911 Addressing Authority,,-74.132009922999941,40.571133955000050,18TWK7347091512,,Structure - Rooftop,-74.13200992299994 40.57113395500005,,,,,Numbered Thoroughfare Address,Active,,,4/22/2025 0:00:00,,,Unknown,,New York State Geospatial Services,RIC0106649
24874076,,3461,,3461,,,,,Liberty,Parkway,,,Liberty Parkway,,,,,,,,,Baltimore,Unincorporated,Dundalk,,,,,,,,,MD,21222,,{C4BB5095-D4F4-4CDE-8A6D-F1E322BC5FE5},,,-76.510028443416473,39.247069277744622,18SUJ6969645281,,Unknown,-76.51002844341647 39.24706927774462,,,,,Numbered Thoroughfare Address,,,,2/14/2024 0:00:00,,,Unknown,,Maryland Department of Information Technology,1083508
45819707,,362,,362,,,,,Richards,Road,,,Richards Road,,,,,,,,,Broome,Fenton,Chenango Forks,,,,,,,,,NY,13746,,{558524DD-5E90-40D5-8B47-BBC81E1D1CE4},911 Addressing Authority,,-75.802648048999970,42.242485567000074,18TVM3377977011,,Structure - Rooftop,-75.80264804899997 42.242485567000074,,,,,Numbered Thoroughfare Address,Active,,,8/28/2018 14:22:14,,,Unknown,,New York State Geospatial Services,BROO085493
21022806,,10,,10,,,,,GARRISON,Circle,,,GARRISON Circle,,,,,,,,,Essex,NEWBURYPORT,Not stated,,NEWBURYPORT,,,,,,,MA,01950,,{8AD0EFBA-632A-32A5-7AE0-03FAA16683D2},NEWBURYPORT,UNINC_COMM,-70.899800564999964,42.821748766000042,19TCH4470142771,,Site,-70.89980056499996 42.82174876600004,,,,,Numbered Thoroughfare Address,,,,3/18/2014 0:00:00,,,RESIDENTIAL,,MASSGIS Massachusetts,{8AD0EFBA-632A-32A5-7AE0-03FAA16683D2}
16285036,,936,,936,,West,,,Moravec,Way,,,West Moravec Way,,,,,,,,,Monroe,Unincorporated,BLOOMINGTON,,,,,,,,,IN,47404,,{DC719C24-CB72-4596-979A-1057D324B05D},Monroe County,,-86.545280757999990,39.171694056000035,16SEJ3927935928,,Unknown,-86.54528075799999 39.171694056000035,,,,530532400007027005,Numbered Thoroughfare Address,,,,4/23/2025 0:00:00,,,RESIDENTIAL 1 FAMILY ON A PLATTED LOT,,Indiana Geographic Information Council,urn:emergency:uid:gis:SSAP:65852:co.monroe.in.us
6223341,,23,,23,,,,,Victoria,Drive,,,Victoria Drive,,,,,,,,,New London,Colchester,Not stated,,COLCHESTER,,,,,,,CT,06415,,{99650E42-7E97-4B40-90EF-855159A87AD5},State of Connecticut Department of Emergency Services and Public Protection,,-72.418026342236303,41.547630904646603,18TYM1534902771,,Structure - Rooftop,-72.4180263422363 41.5476309046466,,,,,Numbered Thoroughfare Address,,,,3/4/2022 0:00:00,,,Unknown,,State of Connecticut,706776
58726238,,18,,18,,,,,Vista Hills,Boulevard,,,Vista Hills Boulevard,,,,,,,,,Crawford,Van Buren,Van Buren,,,VAN BUREN,,,,,,AR,72956,3102,{2F2C496D-04B3-4848-8F46-F6D92EB5A52B},033,,-94.372293150017697,35.451138164179845,15SUV7546323939,,Unknown,-94.3722931500177 35.451138164179845,,,,,Numbered Thoroughfare Address,,,,2/26/2024 0:00:00,,,Residential,,Arkansas Geographic Information Office,
83730573,,9645,,9645,,,,,15th,Avenue,Northeast,,15th Avenue Northeast,,,,,,,,,Benton,Unincorporated,Not stated,,,,,,,,,MN,56367,,{339CE84B-D39F-4FED-915E-58420637C2D8},,,-94.133085819653076,45.708033263650336,15TVL1180262233,,Unknown,-94.13308581965308 45.708033263650336,,,,,Numbered Thoroughfare Address,,,,8/28/2020 0:00:00,,,Unknown,,Geospatial Information Office Minnesota,339CE84B-D39F-4FED-915E-58420637C2D8
35636374,,3218,,3218,,,,,45th,Street,,,45th Street,,,,,,,,,Camden,"Camden, Pennsauken Township",Pennsauken,,,,,,,,,NJ,08110,,{B6F064EE-7777-447E-9420-057D61B319D1},NJ Office of GIS,,-75.063987555741903,39.951233665759098,18SVK9453422346,,Structure - Rooftop,-75.0639875557419 39.9512336657591,,,,39557893-6053-47cd-938d-de5c002c709b,Numbered Thoroughfare Address,,,,1/16/2022 4:56:41,,,Residence,,State of New Jersey,8f98d0b2-020d-4cef-b926-7b3650e87156
45110915,86-,64,,86 ""-""64,,,,,108,Street,,,108 Street,,,,,,,,,Queens,Unincorporated,Richmond Hill,,,,,,,,,NY,11418,,{110A67EC-C67B-4622-87EF-A60CC0E1D9FB},911 Addressing Authority,,-73.839930305999985,40.696141074000025,18TWL9801105673,,Structure - Rooftop,-73.83993030599999 40.696141074000025,,,,,Numbered Thoroughfare Address,Active,,,4/22/2025 0:00:00,,,Unknown,,New York State Geospatial Services,QUE0754489
58333850,,345,,345,,East,,,RIVERSIDE,Drive,,,East RIVERSIDE Drive,,,,,,,,,Washington,ST GEORGE CITY,SAINT GEORGE,,,,,,,,,UT,84790,,{7B172585-8FE4-4605-B765-C1B119D943BD},WASHINGTON COUNTY,ST GEORGE,-113.576768157153367,37.082741941255676,12STG7095607157,,Unknown,-113.57676815715337 37.08274194125568,,,,SG-5-2-31-2346,Numbered Thoroughfare Address,,,,2/18/2025 0:00:00,,,Commercial,,Utah Geospatial Resource Center (UGRC),ST GEORGE | 345 E RIVERSIDE DR
87090314,,3145,,3145,,,,,PALMER,Street,,,PALMER Street,,,,,,,,,Sacramento,SACRAMENTO,SACRAMENTO,,,,,,,,,CA,95815,1412,{5C172517-9F99-42FE-B1B5-3398BE041AF0},Sacramento County CA,,-121.430976358198762,38.625253271557163,10SFH3658276359,,Unknown,-121.43097635819876 38.62525327155716,,,,,Numbered Thoroughfare Address,,7/22/2005 7:00:00,,3/20/2017 17:11:24,,,Unknown,,Sacramento County CA,520295
58433722,,905,,905,,East,,,Linden,Place,,,East Linden Place,,,,,,,,,Benton,ROGERS,Rogers,,,ROGERS,,,,,,AR,72756,6046,{6A8588E8-BAA0-47E5-BE8E-7F940244FF7C},007,,-94.104742106387476,36.313609472271082,15SVA0082619299,,Unknown,-94.10474210638748 36.31360947227108,,,,,Numbered Thoroughfare Address,,,,1/17/2025 0:00:00,,,Residential,,Arkansas Geographic Information Office,
26305532,,37,,37,,,,,Sunset,Drive,,,Sunset Drive,,,,,,,,,Lincoln,Nobleboro,Nobleboro,,Nobleboro,,,,,,,ME,04555,,{2423DA1F-B1C9-4721-AEA0-10876FFA63DC},es.ngesi.maine.gov,,-69.480077337147179,44.153987433352697,19TDJ6160989088,0,Structure - Rooftop,-69.48007733714718 44.1539874333527 0,,,,,Numbered Thoroughfare Address,,,,6/30/2022 10:50:48,,,Unknown,,ngesi.maine.gov Maine,{2423DA1F-B1C9-4721-AEA0-10876FFA63DC}
49780815,,12581,,12581,,,,,ORCHARD,Street,,,ORCHARD Street,,,,,,,,,Wayne,,DOYLESTOWN,,CHIPPEWA TWP,,,,,EASTON,Village,OH,44230,,{1F132088-919F-40CD-96F2-46F871C65AE3},0,,-81.737240702818681,40.952527216479602,17TMF3795233748,,Unknown,-81.73724070281868 40.9525272164796,,,,,Numbered Thoroughfare Address,,,,6/19/2009 0:00:00,,,House,,State of Ohio,{1f132088-919f-40cd-96f2-46f871c65ae3}
43052474,,1090,,1090,,,Route,,112,,,,Route 112,,,,,,,,,Suffolk,Brookhaven,Port Jefferson Station,Terryville CDP,Terryville,,,,,,,NY,11776,,{124220FE-268B-4A88-8D89-A38EC8B484E0},911 Addressing Authority,,-73.041670547999956,40.919273937000071,18TXL6490331642,,Structure - Rooftop,-73.04167054799996 40.91927393700007,,,,,Numbered Thoroughfare Address,Active,,,1/10/2020 15:03:36,,,Commercial,,New York State Geospatial Services,SUFF264581
351442,,5510,,5510,,North,,,130th,Avenue,,,North 130th Avenue,,,,,,,,,Maricopa,Litchfield Park,Not stated,,,,,,,,,AZ,85340,,{A106C0B0-4195-4F3C-B7CB-A354C6BC5680},MARICOPA911.AZ.GOV,,-112.340260373999968,33.515871264000054,12SUC7552709282,,Unknown,-112.34026037399997 33.515871264000054,,,,,Numbered Thoroughfare Address,,,,2/12/2022 14:58:44,,,Unknown,,State of Arizona,AP1319692@MARICOPA911.AZ.GOV
27277401,,20,,20,,,,,Forest Park,Drive,,,Forest Park Drive,,,,,,,,,Jefferson,Unincorporated,Clancy,,,,,,,,,MT,59634,,{E02C85CD-91CC-41B5-940E-855C33110796},Jefferson County,,-111.966816912999946,46.496413638000035,12TVS2580949658,,Structure - Rooftop,-111.96681691299995 46.496413638000035,,,Montana Department of Revenue,51178534102010000,Numbered Thoroughfare Address,,,,11/27/2024 0:00:00,,,Residential,,Montana State Library,99043000.{3576A219-02AE-42EC-BE82-AEE9E104FC5B}
86437925,,16,,16,,,,,Mark,Drive,,,Mark Drive,,,,,,,,,Westmoreland,Salem Township,Not stated,,Unincorporated,,,,,,,PA,,,{604C9F6F-C322-4B96-AF8D-A70D64F1FB58},Westmoreland County,,-79.578096316941398,40.404643892924902,17TPE2065573640,,Unknown,-79.5780963169414 40.4046438929249,,,,,Numbered Thoroughfare Address,,,,1/19/2022 0:00:00,,,Unknown,,Westmoreland County Pennsylvania,122708
49706145,,829,,829,,,,,TURNBURY,Lane,,,TURNBURY Lane,,,,,,,,,Wood,PERRYSBURG,PERRYSBURG,,PERRYSBURG,THE VILLAGE AT RIVER PLACE,,,,,Village,OH,43551,,{DD450760-ED8A-42AA-A499-742DEFA0DB0F},0,,-83.627593658283729,41.534776767380563,17TKG8080101459,,Unknown,-83.62759365828373 41.53477676738056,,,,,Numbered Thoroughfare Address,,,,11/28/2017 0:00:00,,,Apartment,,State of Ohio,{dd450760-ed8a-42aa-a499-742defa0db0f}
68636640,,1953,,1953,,,,,COUNTY ROAD 4701,,,,COUNTY ROAD 4701,,,,,,,,,Cherokee,Unincorporated,TROUP,,,,,,,,,TX,75789,,{7313B284-E802-4D6C-8526-60967FE70248},CSEC,,-95.094775129999960,32.089267848000077,15SUR0230952250,,Unknown,-95.09477512999996 32.08926784800008,,,,,Numbered Thoroughfare Address,,,,10/21/2022 0:00:00,,,Unknown,,State of Texas,{7313b284-e802-4d6c-8526-60967fe70248}
80649218,,502,,502,,,County Road,,123,,,,County Road 123,,,,,,,,,DeKalb,Unincorporated,Not stated,,DeKalb County,,,,,,,AL,35961,,{6DDF3442-2B36-4F8A-8C69-3C09F558FCD3},,,-85.898935911030875,34.337618404212158,16SFD0127900140,,Unknown,-85.89893591103088 34.33761840421216,,,,,Numbered Thoroughfare Address,,,,9/20/2024 0:00:00,,,Unknown,,Alabama 911 Board,{6DDF3442-2B36-4F8A-8C69-3C09F558FCD3}
17383837,,26765,,26765,,West,,,327TH,Street,,,West 327TH Street,,,,,,,,,Miami,UNINCORPORATED,PAOLA,,MIAMI COUNTY,,,,,,,KS,66071,,{E8D9A23D-EB4C-4241-B394-F25E05D55043},MIAMI COUNTY SHERIFF'S OFFICE,,-94.897199557100208,38.533877757529361,15SUC3463866758,,Structure - Rooftop,-94.89719955710021 38.53387775752936,,,,,Numbered Thoroughfare Address,,1/1/2014 0:00:00,,1/28/2010 0:00:00,,,Unknown,,State of Kansas,485025200911046717100000
2384651,,7200,,7200,,North,,,43rd,Avenue,,,North 43rd Avenue,,FLOOR1,1,,,,FLOOR1 1,,Maricopa,Glendale,Not stated,,,,,,,,,AZ,85301,,{C4A09609-FDF5-4718-B2E1-A23345A176B4},glendale911.az.gov,,-112.151703544999975,33.543374632000052,12SUC9307412122,,Unknown,-112.15170354499998 33.54337463200005,,,,,Numbered Thoroughfare Address,,,,3/26/2024 21:00:10,,,Unknown,,State of Arizona,urn:emergency:uid:gis:SSAP:{AF591D5B-4734-49CF-B6A
30030206,,187,,187,,,,,PENLEE,Way,,,PENLEE Way,,,,,,,,,Henderson,MILLS RIVER,MILLS RIVER,,,,,,,,,NC,28759,,{F25285E9-F263-435B-A6BD-46AC823926C1},,,-82.552216096791526,35.403602215856566,17SLV5905118908,,Unknown,-82.55221609679153 35.403602215856566,,,,,Numbered Thoroughfare Address,,,,10/20/2022 16:23:05,,,Unknown,,State of North Carolina,urn:emergency:uid:gis:ssap:72598:henderson.nc.us
13034431,,7737,,7737,,North,,,NORDICA,Avenue,,,North NORDICA Avenue,,,A,,,,A,,Cook,NILES,NILES,,,,,,,,,IL,60714,,{2C6E1FF4-BFA8-47F0-8934-C973BE95A75B},Reserved for future use,,-87.797946039388151,42.022162154934563,16TDM3393852544,,Unknown,-87.79794603938815 42.02216215493456,,,,,Numbered Thoroughfare Address,,,,10/15/2019 17:07:30,,,Unknown,,State of Illinois,{2c6e1ff4-bfa8-47f0-8934-c973be95a75b}
69006936,,18757,,18757,,,,,BRACKEN,Drive,,,BRACKEN Drive,,,,,,,,,Comal,Unincorporated,SAN ANTONIO,,,,,,,,,TX,,,{A69A7911-48AF-423E-9167-6D589A169CCC},Bexar Metro 911,,-98.330870074999950,29.612484397000060,14RNT6478676033,,Unknown,-98.33087007499995 29.61248439700006,,,,,Numbered Thoroughfare Address,,,,1/11/2024 0:00:00,,,Unknown,,State of Texas,{a69a7911-48af-423e-9167-6d589a169ccc}
49908635,,2862,,2862,,,,,BARCLAY MESSERLY,Road,Northwest,,BARCLAY MESSERLY Road Northwest,,,,,,,,,Trumbull,,SOUTHINGTON,,SOUTHINGTON TWP,,,,,,Village,OH,44470,,{F7248E7A-2AB8-4940-81E5-BDB9B1B8ABB9},0,,-80.925154490814279,41.295628674895113,17TNF0626671578,,Unknown,-80.92515449081428 41.29562867489511,,,,,Numbered Thoroughfare Address,,,,11/6/2012 0:00:00,,,House,,State of Ohio,{f7248e7a-2ab8-4940-81e5-bdb9b1b8abb9}
69404626,,3525,,3525,,,,,CARUTH,Boulevard,,,CARUTH Boulevard,,,,,,,,,Dallas,Unincorporated,UNIVERSITY PARK,,,,,,,,,TX,75225,,{A972F929-8ABF-4E06-8053-1EBA8587CAC5},New Edge Services,,-96.791314975999967,32.858955437000077,14SQB0667537812,,Unknown,-96.79131497599997 32.85895543700008,,,,,Numbered Thoroughfare Address,,,,3/20/2024 0:00:00,,,Unknown,,State of Texas,{a972f929-8abf-4e06-8053-1eba8587cac5}
24035531,,6128,,6128,,,,,Macbeth,Drive,,,Macbeth Drive,,,Apt 2,,,,Apt 2,,Baltimore city,Unincorporated,Baltimore,,,,,,,,,MD,21239,,{25229C31-D9A7-4DBD-8EAB-F3B8CCA139D0},,,-76.597741403926989,39.368751987055340,18SUJ6236658916,,Unknown,-76.59774140392699 39.36875198705534,,,,,Numbered Thoroughfare Address,,,,2/14/2024 0:00:00,,,Unknown,,Maryland Department of Information Technology,123438
84196632,,1003,,1003,,,,,Doty,Street,,,Doty Street,,,,,,,,,Eau Claire,Unincorporated,EAU CLAIRE,,,,,,,,,WI,54701,3855,{70E00207-2450-41CF-A444-F54F1170DACF},peter.strand@co.eau-claire.wi.us,,-91.491199519999995,44.807022580000002,15TXK1931562620,,Unknown,-91.49119952 44.80702258,,,,,Numbered Thoroughfare Address,,,,7/17/2018 10:40:24,,,Unknown,,State of Wisconsin,185099
78984181,,475,,475,,,,,Pintail,Lane,,,Pintail Lane,,,,,,,,,Montgomery,LETOHATCHEE,Not stated,,,,,,,,,AL,36047,,{9C7066AB-1B98-43BA-B7E1-51705D278086},,,-86.400318605132952,32.075290354647805,16SEA5659748938,,Unknown,-86.40031860513295 32.075290354647805,,,,,Numbered Thoroughfare Address,,,,9/20/2024 0:00:00,,,Unknown,,Alabama 911 Board,{9C7066AB-1B98-43BA-B7E1-51705D278086}
154293,,4249,,4249,,West,,,Hubbell,Street,,,West Hubbell Street,,,,,,,,,Maricopa,Phoenix,Not stated,,,,,,,,,AZ,85009,,{9AFDD3FC-1EAA-4911-9F87-911C81D45BC9},MARICOPA911.AZ.GOV,,-112.151295231999939,33.469734516000074,12SUC9302103956,,Unknown,-112.15129523199994 33.469734516000074,,,,,Numbered Thoroughfare Address,,,,2/12/2022 13:57:16,,,Unknown,,State of Arizona,AP490006@MARICOPA911.AZ.GOV
1915553,,1745,,1745,,,,,Avalon,Bay,,,Avalon Bay,,,,,,,,,Mohave,Lake Havasu City,Lake Havasu City,,,,,,,,,AZ,86404,,{B2F332D2-019F-4CF9-871C-FBF9B0606500},mohave911.az.gov,,-114.341959312999961,34.524551948000067,11SQU4397623528,,Unknown,-114.34195931299996 34.52455194800007,,,,,Numbered Thoroughfare Address,,,,3/5/2020 9:39:13,,,Unknown,,State of Arizona,SITE1490@mohave911.az.gov
36449338,,226,,226,,,,,Gateway,Road,,,Gateway Road,,,,,,,,,Bergen,"Bergen, Ridgewood Village",Ridgewood,,,,,,,,,NJ,07450,2902,{47B05B01-5964-40C9-A1AD-9C6D9F5F318A},NJ Office of GIS,,-74.081044194844196,40.979819631267198,18TWL7730936923,,Structure - Rooftop,-74.0810441948442 40.9798196312672,,,,eb98d274-e43f-4251-8bee-5a0f997c4051,Numbered Thoroughfare Address,,,,1/12/2022 22:31:28,,,Residence,,State of New Jersey,619503db-db68-47cd-a4f7-c76eb24c47c4
80795896,,2162,,2162,,East,,,RIDGEWOOD,Drive,,,East RIDGEWOOD Drive,,,,,,,,,Greene,Unincorporated,SPRINGFIELD,,,,,,,,,MO,65804,,{20EC96FF-9DC6-4E67-878A-06957AFBD711},,,-93.254048866858668,37.154623614769697,15SVB7744112055,,Structure - Entrance,-93.25404886685867 37.1546236147697,,,,,Numbered Thoroughfare Address,,,,3/13/2024 0:00:00,,,Unknown,,Greene County Missouri,{20EC96FF-9DC6-4E67-878A-06957AFBD711}
64503460,,322,,322,,,,,6Th,Street,,,6Th Street,,,,,,,,,Harrisonburg city,Harrisonburg City,Harrisonburg,,,,,,,,,VA,22802,,{D2560F2A-E681-4D79-AD87-594C58406C43},Harrisonburg City,,-78.872190889778395,38.461780709486099,17SPC8564859197,,Structure - Rooftop,-78.8721908897784 38.4617807094861,,,,,Numbered Thoroughfare Address,,9/8/2023 0:00:00,,9/8/2023 0:00:00,,,Unknown,,Virginia Geographic Information Network,1445165
42343846,,110,,110,,,,,Miller,Lane,,,Miller Lane,,,,,,,,,Schoharie,Esperance,Esperance,,,,,,,,,NY,12066,,{B7E573AE-5989-4DFF-A821-0F76B2718A4F},911 Addressing Authority,,-74.264508554999964,42.758299871000077,18TWN6018334237,,Structure - Rooftop,-74.26450855499996 42.75829987100008,,,,,Numbered Thoroughfare Address,Active,,,9/14/2023 10:40:25,,,Unknown,,New York State Geospatial Services,SCHO012251
31195565,,7795,,7795,,,,,TRAPPERS,Road,,,TRAPPERS Road,,,,,,,,,Cumberland,Unincorporated,FAYETTEVILLE,,,,,,,,,NC,28311,,{7A4CC0D0-D971-47A3-8ABD-4934D67B3473},,,-78.883877588621530,35.204970645612093,17SPU9263197825,,Unknown,-78.88387758862153 35.20497064561209,,,,,Numbered Thoroughfare Address,,,,10/24/2023 9:34:02,,,Unknown,,State of North Carolina,SSAP_9489@cmldncec1.cumberland.nc.us
80434387,,752,,752,,,,,Bayou,Circle,,,Bayou Circle,,,,,,,,,Washington,Unincorporated,CALVERT,,McIntosh,,,,,,,AL,,,{142A3CE3-1CA0-4F75-A3C5-AB6FB1068DB9},,,-87.971379028188409,31.179552215081884,16RDV0743849907,0,Unknown,-87.97137902818841 31.179552215081884 0,,,,,Numbered Thoroughfare Address,,,12/30/1899 0:00:00,9/20/2024 0:00:00,,,,,Alabama 911 Board,{142A3CE3-1CA0-4F75-A3C5-AB6FB1068DB9}
78390430,,6767,,6767,,,,,KINGS BRANCH,Drive,South,,KINGS BRANCH Drive South,,,,,,,,,Mobile,MOBILE,Not stated,,,,,,,,,AL,36618,,{3906CE78-A9CA-4CF4-8A3B-34ADCD024118},,,-88.200256751383492,30.760231146299144,16RCV8512603645,,Unknown,-88.20025675138349 30.760231146299144,,,,,Numbered Thoroughfare Address,,,,1/4/2024 16:59:46,,,Unknown,,Alabama 911 Board,{3906CE78-A9CA-4CF4-8A3B-34ADCD024118}
1124658,,2625,,2625,,North,,,Mcallister,Avenue,,,North Mcallister Avenue,,,,,,,,,Maricopa,Tempe,Not stated,,,,,,,,,AZ,85281,,{AFF44755-0937-48EB-AB1A-6A5467CAFC1E},MARICOPA911.AZ.GOV,,-111.930225414999938,33.456985398000029,12SVC1355102337,,Unknown,-111.93022541499994 33.45698539800003,,,,,Numbered Thoroughfare Address,,,,2/12/2022 14:47:06,,,Unknown,,State of Arizona,AP1765870@MARICOPA911.AZ.GOV
13176984,,20816,,20816,,,,,GREENWOOD,Drive,,,GREENWOOD Drive,,,,,,,,,Cook,OLYMPIA FIELDS,OLYMPIA FIELDS,,,,,,,,,IL,60461,,{0FA2030A-43B6-4228-A867-8A77FD418166},Reserved for future use,,-87.699365205773148,41.511139227913645,16TDL4163895736,,Unknown,-87.69936520577315 41.511139227913645,,,,,Numbered Thoroughfare Address,,,,5/14/2020 0:00:00,,,Unknown,,State of Illinois,{0fa2030a-43b6-4228-a867-8a77fd418166}
32395776,,110,,110,,,,,PINECONE,Court,,,PINECONE Court,,,,,,,,,Moore,Unincorporated,WEST END,,,,,,,,,NC,27376,,{65FD8C12-173D-4C6E-9DBA-67318080C754},,,-79.571672334189913,35.286555935296853,17SPV2988505757,,Unknown,-79.57167233418991 35.28655593529685,,,,,Numbered Thoroughfare Address,,6/12/2001 0:00:00,,6/11/2024 20:48:19,,,Unknown,,State of North Carolina,urn:emergency:uid:gis:ssap:7741@moorncps1.moore.nc
65535229,,7330,,7330,,,,,Cactus,Road,,,Cactus Road,,,,,,,,,Hanover,Hanover County,Mechanicsville,,,,,,,,,VA,23111,,{15702819-A87E-4472-9AB1-8603C75193C0},Hanover County,,-77.320004269369903,37.602422318878801,18STG9520064235,,Structure - Rooftop,-77.3200042693699 37.6024223188788,,,,,Numbered Thoroughfare Address,,9/6/2023 0:00:00,,9/6/2023 0:00:00,,,Unknown,,Virginia Geographic Information Network,2478078
89422240,,1887,,1887,,,,,SHUMWAY,Avenue,,,SHUMWAY Avenue,,,,,,,,,Natrona,CASPER,Casper,,,,,,,,,WY,82601,,{9EB5A116-6454-481E-993C-CEE20AA2046F},,,-106.302497139061245,42.829493003676937,13TCH9354142703,,Unknown,-106.30249713906124 42.82949300367694,,,,,Numbered Thoroughfare Address,Final,,,1/17/2020 23:39:47,,,@TRIM(Residential Single Family),,Natrona County Wyoming,17492
50091656,,3000,,3000,,,,,14TH,Street,Northwest,,14TH Street Northwest,,,,,,,,,Stark,,CANTON,,CANTON TWP,,,,,,Village,OH,44708,,{D2F20823-0A0E-4D87-BEDE-3DE7666009F3},0,,-81.407763924792803,40.812642779961067,17TMF6560918038,,Unknown,-81.4077639247928 40.81264277996107,,,,,Numbered Thoroughfare Address,,,,6/15/2011 0:00:00,,,House,,State of Ohio,{d2f20823-0a0e-4d87-bede-3de7666009f3}
1026831,,1955,,1955,,West,,,Frye,Road,,,West Frye Road,,,,,,,,,Maricopa,Chandler,Not stated,,,,,,,,,AZ,85224,,{3714A2C6-E35D-432B-B412-421711ACEA63},MARICOPA911.AZ.GOV,,-111.873651524999957,33.297704238000051,12SVB1866184631,,Unknown,-111.87365152499996 33.29770423800005,,,,,Numbered Thoroughfare Address,,,,3/6/2023 13:44:26,,,Unknown,,State of Arizona,AP1686737@MARICOPA911.AZ.GOV
73376344,,100,,100,,,,,DIVISION,Street,,,DIVISION Street,,,,,,,,,Hunt,Unincorporated,GREENVILLE,,,,,,,,,TX,75402,,{2D604FAD-4F0E-4A64-A2F1-E087A41E6573},NCT911,,-96.074417269999969,33.121514083000079,14SQB7296868568,,Unknown,-96.07441726999997 33.12151408300008,,,,,Numbered Thoroughfare Address,,,,8/19/2019 0:00:00,,,Unknown,,State of Texas,{2d604fad-4f0e-4a64-a2f1-e087a41e6573}
73319471,,107,,107,,North,,,3rd,Street,,,North 3rd Street,,,,,,,,,Houston,Unincorporated,Not stated,,,,,,,,,TX,,,{916B0CEE-3D41-41D1-8A79-13FB6CD261EE},CSEC,,-95.458917333999977,31.318925863000061,15RTQ6600867558,,Unknown,-95.45891733399998 31.31892586300006,,,,,Numbered Thoroughfare Address,,,,1/4/2024 0:00:00,,,Unknown,,State of Texas,{916b0cee-3d41-41d1-8a79-13fb6cd261ee}
67377736,,4715,,4715,,,,,THOMAS RUSK,,,,THOMAS RUSK,,,,,,,,,Bexar,Unincorporated,SAN ANTONIO,,,,,,,,,TX,,,{1A5EA42D-764E-4CCD-9986-4D322122FBC8},Bexar Metro 911,,-98.733306526999968,29.480199243000072,14RNT2585561219,,Unknown,-98.73330652699997 29.480199243000072,,,,,Numbered Thoroughfare Address,,,,1/11/2024 0:00:00,,,Unknown,,State of Texas,{1a5ea42d-764e-4ccd-9986-4d322122fbc8}
9871414,,627,,627,,,,,SPRUCE,Street,,,SPRUCE Street,,,,,,,,,Grundy,MORRIS,MORRIS,,,,,,,,,IL,60450,,{F5B7C450-A92A-4E06-AA94-906C17849447},Reserved for future use,,-88.414219733339934,41.361875454873868,16TCL8171379894,,Unknown,-88.41421973333993 41.36187545487387,,,,,Numbered Thoroughfare Address,,,,12/1/2023 0:00:02,,,Unknown,,State of Illinois,{f5b7c450-a92a-4e06-aa94-906c17849447}
50228221,,829,,829,,,,,JUDY,Avenue,,,JUDY Avenue,,,,,,,,,Preble,EATON,EATON,,EATON,,,,,,Village,OH,45320,,{07E478D0-E112-4F54-AD40-9C9922B36921},0,,-84.623224742455378,39.757073958626663,16SGK0360803497,,Unknown,-84.62322474245538 39.75707395862666,,,,,Numbered Thoroughfare Address,,,,4/4/2016 0:00:00,,,House,,State of Ohio,{07e478d0-e112-4f54-ad40-9c9922b36921}
68999254,,1094,,1094,,,,,HAPPY HOLLOW,Drive,,,HAPPY HOLLOW Drive,,,,,,,,,Comal,Unincorporated,NEW BRAUNFELS,,,,,,,,,TX,,,{E968ED71-2DB2-4252-9565-8A7E11A7D60A},Bexar Metro 911,,-98.141355905999944,29.839364368000076,14RNU8294801295,,Unknown,-98.14135590599994 29.839364368000076,,,,,Numbered Thoroughfare Address,,,,1/11/2024 0:00:00,,,Unknown,,State of Texas,{e968ed71-2db2-4252-9565-8a7e11a7d60a}
10912152,,624,,624,,,,,CANTERFIELD,Parkway,West,,CANTERFIELD Parkway West,,,,,,,,,Kane,WEST DUNDEE,Dundee,,,,,,,,,IL,60118,,{714327C9-4468-422C-965E-B875236EF111},Reserved for Future Use,,-88.294989131354427,42.076292262681420,16TCM9287959058,,Unknown,-88.29498913135443 42.07629226268142,,,,,Numbered Thoroughfare Address,,4/7/2020 15:00:00,,1/27/2022 12:00:00,,,Unknown,,State of Illinois,{714327c9-4468-422c-965e-b875236ef111}
14447499,,5910,,5910,,,,,Gladden,Drive,,,Gladden Drive,,,,,,,,,Marion,Unincorporated,INDIANAPOLIS,,,,,,,,,IN,46220,,{42B34A3F-41F3-49E9-A321-C959E3460E11},Marion County,,-86.156580979999944,39.861638196000058,16SEK7213912740,,Unknown,-86.15658097999994 39.86163819600006,,,,490601114071000801,Numbered Thoroughfare Address,,,,12/30/1899 0:00:00,,,RESIDENTIAL 1 FAMILY ON A PLATTED LOT,,Indiana Geographic Information Council,urn:emergency:uid:gis:SSAP:2493600:indy.gov
23152389,,18,,18,,,,,STONE HOUSE,Lane,,,STONE HOUSE Lane,,,,,,,,,Essex,GLOUCESTER,Not stated,,GLOUCESTER,,,,,,,MA,01930,,{8AD0EFAE-7A67-A675-7AE0-03FAA16683D2},GLOUCESTER,UNINC_COMM,-70.673330481999983,42.666038744000048,19TCH6287125087,,Parcel - Centroid,-70.67333048199998 42.66603874400005,,,,,Numbered Thoroughfare Address,,,,3/12/2014 0:00:00,,,EDUCATIONAL,,MASSGIS Massachusetts,{8AD0EFAE-7A67-A675-7AE0-03FAA16683D2}
69475383,,2022,,2022,,,,,TIEHACK,Lane,,,TIEHACK Lane,,,,,,,,,Dallas,Unincorporated,GARLAND,,,,,,,,,TX,75044,,{CD069AFE-63B6-426B-A764-042E3F2FC85A},New Edge Services,,-96.658778389999952,32.945611074000055,14SQB1886647690,,Unknown,-96.65877838999995 32.945611074000055,,,,,Numbered Thoroughfare Address,,,,3/20/2024 0:00:00,,,Unknown,,State of Texas,{cd069afe-63b6-426b-a764-042e3f2fc85a}
17487158,,306,,306,,West,,,29TH,Avenue,,,West 29TH Avenue,,,,,,,,,Reno,HUTCHINSON,HUTCHINSON,,HUTCHINSON,,,,,,,KS,67502,,{24B2E976-333E-4F0E-9863-CB141760FE93},HUTCHINSON/RENO COUNTY EMERGENCY COMMUNICATIONS,,-97.938509878396971,38.085620400716891,14SNH9308815846,,Structure - Rooftop,-97.93850987839697 38.08562040071689,,,,,Numbered Thoroughfare Address,,1/1/2014 0:00:00,,12/28/2024 0:00:00,,,Unknown,,State of Kansas,4855976406
87043745,,7464,,7464,,,,,FAIRWAY TWO,Avenue,,,FAIRWAY TWO Avenue,,,,,,,,,Sacramento,UNINCORPORATED,FAIR OAKS,Fair Oaks CDP,,,,,,,,CA,95628,4653,{8DB6F9D4-697C-4814-BC37-CA4046B6974D},Sacramento County CA,,-121.290866662786499,38.655895430892450,10SFH4871579977,,Unknown,-121.2908666627865 38.65589543089245,,,,,Numbered Thoroughfare Address,,2/16/2008 23:48:14,,3/20/2017 17:11:24,,,Unknown,,Sacramento County CA,472245
27157893,,1021,,1021,,,,,Green Valley,Court,,,Green Valley Court,,,,,,,,,Flathead,Unincorporated,Columbia Falls,,,,,,,,,MT,59912,,{86015FAA-6649-4F3B-929D-F3EEA6F6881C},Flathead County,,-114.194820470999957,48.266615644000069,11UQP0816349738,,Structure - Rooftop,-114.19482047099996 48.26661564400007,,,Montana Department of Revenue,07407920201150000,Numbered Thoroughfare Address,,,,1/29/2025 8:52:11,,,Open,,Montana State Library,99029000.fa9c8776-7dab-4c34-a8ce-2e8e2110d880
20683039,,435,,435,,,,,KAUFMAN,Road,,,KAUFMAN Road,,,,,,,,,Bristol,SOMERSET,Not stated,,SOMERSET,,,,,,,MA,02726,,{8AD0EFA8-F314-3145-7AE0-03FAA16683D2},SOMERSET,UNINC_COMM,-71.169260590999954,41.732478550000053,19TCG1959122348,,Structure - Rooftop,-71.16926059099995 41.73247855000005,,,,,Numbered Thoroughfare Address,,,,3/3/2014 0:00:00,,,RESIDENTIAL,,MASSGIS Massachusetts,{8AD0EFA8-F314-3145-7AE0-03FAA16683D2}
39799383,,715,,715,,West,,,Court,Street,,,West Court Street,,,,,,,,,Tompkins,Ithaca,Ithaca,,,,,,,,,NY,14850,,{76CE8C7F-4EF7-40C4-B0FA-C3F7E3C40868},911 Addressing Authority,,-76.509543579999956,42.442140361000043,18TUM7585199972,,Structure - Rooftop,-76.50954357999996 42.44214036100004,,,,,Numbered Thoroughfare Address,Active,,,4/22/2025 0:00:00,,,Unknown,,New York State Geospatial Services,TOMP022395
28936216,,2617,,2617,,,,,OAKLEY,Road,,,OAKLEY Road,,,,,,,,,New Hanover,Unincorporated,CASTLE HAYNE,,,,,,,,,NC,28429,,{A84AB5F3-A17D-4C82-9471-C804C4863E93},,,-77.923742808342269,34.302449623076932,18STC3091699562,,Unknown,-77.92374280834227 34.30244962307693,,,,,Numbered Thoroughfare Address,,,,12/30/2024 13:39:49,,,Unknown,,State of North Carolina,AP36599@newhanover.nc.us
29440881,,3810,,3810,,,,,STONEY RIDGE,Trail,,,STONEY RIDGE Trail,,,,,,,,,Mecklenburg,CHARLOTTE,CHARLOTTE,,,,,,,,,NC,28210,,{5AFEB1AF-9471-4D11-82D6-D0057424CAB6},,,-80.852241948952738,35.128784702536990,17SNU1346287334,,Unknown,-80.85224194895274 35.12878470253699,,,,,Numbered Thoroughfare Address,,6/1/2009 0:00:00,12/31/9999 0:00:00,5/5/2020 17:39:27,,,Unknown,,State of North Carolina,SSAP_508093@mecknc.gov
81332007,,44,,44,,,,,TINY HARBOR,Lane,,,TINY HARBOR Lane,,,STE 7127,,,,STE 7127,,Camden,Unincorporated,OSAGE BEACH,,,,,,,,,MO,65065,,{F05DD5A1-45EB-44F4-BCE1-DF9D72CFD271},,,-92.722079345834075,38.134801941797463,15SWC2435520808,,Structure - Interior,-92.72207934583408 38.13480194179746,,,,,Numbered Thoroughfare Address,,,,3/13/2024 0:00:00,,,Unknown,,Camden County Missouri,{F05DD5A1-45EB-44F4-BCE1-DF9D72CFD271}
31831751,,4058,,4058,,,,,ATKINSON,Road,,,ATKINSON Road,,,,,,,,,Robeson,Unincorporated,ORRUM,,,,,,,,,NC,28369,,{D8C2CEBE-A6C4-4107-8238-4E6E316BF88D},,,-79.022181927461759,34.480312739508008,17SPU8162517189,,Unknown,-79.02218192746176 34.48031273950801,,,,,Numbered Thoroughfare Address,,,,1/20/2025 16:38:27,,,Unknown,,State of North Carolina,urn:emergency:uid:gis:ssap:3984796:robeson.nc.us
33647715,,814,,814,,,Highway,,49,,,,Highway 49,,,,,,,,,Mercer,UNINCORPORATED,BEULAH,,,,,,,,,ND,58523,,{9B1A7306-3C7B-4650-AEE6-2B71011F38B0},ndaco.org,,-101.784924462793995,47.298351702768898,14TKT8946242081,,Structure - Rooftop,-101.784924462794 47.2983517027689,,,,,Numbered Thoroughfare Address,,,,10/17/2020 0:00:00,,,Unknown,,State of North Dakota,28103
6820249,,4811,,4811,,,,,MINNESOTA,Avenue,Northeast,,MINNESOTA Avenue Northeast,,,203,,,5162    0025,203 5162    0025,,District of Columbia,WASHINGTON,Not stated,,Deanwood,018 B Deanwood,,,,,,DC,20019,,{9EABD041-D30C-4B4D-8D93-FAD555979BA5},DCRA,,-76.932596384288502,38.908954783903098,18SUJ3243208448,,Unknown,-76.9325963842885 38.9089547839031,,,,,Numbered Thoroughfare Address,,,,10/31/2022 0:00:00,,,Residential,,OCTO DATA TEAM District of Columbia,127840
17732551,,2232,,2232,,,,,DEER,Road,,,DEER Road,,,,,,,,,Dickinson,UNINCORPORATED,ABILENE,,DICKINSON COUNTY,,,,,,,KS,67410,,{23199801-921D-4AFA-AA1B-57C808B7CE65},DICKINSON COUNTY EMERGENCY COMMUNICATIONS,,-97.296777455246030,38.918322154611978,14SPJ4765909091,,Structure - Rooftop,-97.29677745524603 38.91832215461198,,,,,Numbered Thoroughfare Address,,1/1/2010 0:00:00,,2/3/2025 0:00:00,,,Unknown,,State of Kansas,48499014012144489128
64838286,,2180,,2180,,,,,Jacksontown,Pike,,,Jacksontown Pike,,,,,,,,,Fauquier,Fauquier County,Delaplane,,,,,,,,,VA,20144,,{C07D0F37-836B-4116-B9C2-AF7EA596AE87},Fauquier County,,-78.143243981004900,39.061965303239496,17SQD4717627537,,Structure - Rooftop,-78.1432439810049 39.0619653032395,,,,,Numbered Thoroughfare Address,,4/28/2023 0:00:00,,4/28/2023 0:00:00,,,Unknown,,Virginia Geographic Information Network,1780346
27349930,,137,,137,,,,,Scenery,Road,,,Scenery Road,,,,,,,,,Lincoln,Libby,Libby,,,,,,,,,MT,59923,,{73DE6E24-B73C-4BDD-8A5A-0FCAC7A82393},Lincoln County,,-115.551529403999950,48.366246461000060,11UPP0728158021,,Structure - Rooftop,-115.55152940399995 48.36624646100006,,,Montana Department of Revenue,56417515204060000,Numbered Thoroughfare Address,,,,12/20/2023 21:27:35,,,Residential,,Montana State Library,99053000.{1DBB6574-0119-4588-870D-8324D7E9FE5B}
2449178,,373,,373,,East,,,7th,Lane,,,East 7th Lane,,,,,,,,,Apache,Eagar,Eagar,,,,,,,,,AZ,85925,,{3919D403-6D12-4A17-ADB7-3CB8855F2408},NAUA.AZ.US,,-109.283658413999945,34.097562171000050,12SXC5832774303,,Unknown,-109.28365841399994 34.09756217100005,,,,,Numbered Thoroughfare Address,,,,4/4/2022 13:59:22,,,Unknown,,State of Arizona,SITE2376301@NAUA.AZ.US
31696421,,4310,,4310,,,,,RAMSEY FORD,Road,,,RAMSEY FORD Road,,,,,,,,,Columbus,Unincorporated,TABOR CITY,,,,,,,,,NC,28463,,{975EAFB4-8E78-4BD1-AF8B-28FCFADFF795},,,-78.700167267275447,34.062538796172433,17SQT1225071476,0,Unknown,-78.70016726727545 34.06253879617243 0,,,,,Numbered Thoroughfare Address,,11/1/2019 0:00:00,,9/18/2024 0:00:00,,,Unknown,,State of North Carolina,AP3929@clmbnccc1.columbus.nc.us
